bbox,cessation,country_id,deprecated,file_hash,fullname,geom_hash,geom_latitude,geom_longitude,id,inception,iso,iso_country,lastmodified,lbl_latitude,lbl_longitude,locality_id,name,parent_id,path,placetype,region_id,source,superseded_by,supersedes,wof_country
"-87.7755992934263,41.8190047538661,-87.6368222550356,41.9166868871327",uuuu,85633793,,a3dc669319ae01f64fc31aaa7a301a7e,,8eba648b6f1ec8e298adc9d1593c3f83,41.876150,-87.706279,957979099,uuuu,US,US,1507246146,41.871586,-87.700686,85940195,West Side,85940195,957/979/099/957979099.geojson,borough,85688697,mz,,,US
"-87.80162605978,41.64454312227478,-87.5241371038858,41.8528864108917",uuuu,85633793,,d8d8db472837465653d2cf1d0bc94a00,,289f25801ea672eb62f5a3cc8ccef85c,41.746514,-87.638961,958036681,uuuu,US,US,1507246146,41.793725,-87.634218,85940195,South Side,85940195,958/036/681/958036681.geojson,borough,85688697,mz,,85866941,US
"-87.6454187148439,41.8469923594951,-87.59852438757756,41.9112507466623",uuuu,85633793,,c4d36dd56c82da7cbc192f7c422a697f,,41d40f4f7de31f14e0cc66314309f359,41.878022,-87.626955,957999223,uuuu,US,US,1507246146,41.879218,-87.626952,85940195,Central,85940195,957/999/223/957999223.geojson,borough,85688697,mz,,,US
"-74.04189513118025,40.56952999448673,-73.83623731597845,40.73912795313434",uuuu,85633793,,02a545e78cd6e47ec7ab69352a09e64f,,e6dea41e03b9c754c3ad68ab0cf09ce3,40.644536,-73.947928,421205765,uuuu,US,US,1513812442,40.652256,-73.956582,85977539,Brooklyn,85977539,421/205/765/421205765.geojson,borough,85688543,mz,,"420782855,404521211",US
"-73.96262015898665,40.54182008715523,-73.70000906387122,40.801011467819",uuuu,85633793,,84fb2fbfe5db9652f34604938f5501d0,,1a6ebf71ce09963257e2465227ccf798,40.707366,-73.818798,421205767,uuuu,US,US,1513812670,40.718804,-73.805154,85977539,Queens,85977539,421/205/767/421205767.geojson,borough,85688543,mz,,"420782853,404521559",US
"-74.0477296269705,40.68291694544506,-73.90665099539478,40.87903804680469",uuuu,85633793,,8fe3f717ebe420595df5848b9b1fa36d,,781d106e30d8368dd2a217dd272be574,40.777595,-73.967045,421205771,uuuu,US,US,1513812599,40.777048,-73.967596,85977539,Manhattan,85977539,421/205/771/421205771.geojson,borough,85688543,mz,,"420782849,404522731",US
"-73.93360592036717,40.78535662050848,-73.76533243995296,40.91553277700521",uuuu,85633793,,0e93f15eed2aaa29731801986f6500ed,,ba1b350e95026d7e891455b4c4311f2e,40.852635,-73.866605,421205773,uuuu,US,US,1513812723,40.853551,-73.874979,85977539,The Bronx,85977539,421/205/773/421205773.geojson,borough,85688543,mz,,"420782851,404521159",US
"-74.25559136315229,40.49613398761198,-74.05222826954197,40.64889114733949",uuuu,85633793,,cc1877b23c7e25b4d173064e11fdec67,,72ef53fbd5eb7c2c0e8ef060dd952b55,40.580852,-74.153376,421205775,uuuu,US,US,1507246145,40.589886,-74.151842,85977539,Staten Island,85977539,421/205/775/421205775.geojson,borough,85688543,mz,,"420782857,404523089",US
"24.5889958385385,59.9014033851297,24.9425927607259,60.1895251701339",uuuu,85633143,,fa4faa6c251d5d16b263a7b1efd03833,,d74ce5391242118e277db4f28328d16d,60.044088,24.767540,1108729211,uuuu,FI,FI,1507246136,60.161260,24.668330,101748415,Suur-Espoonlahti,101748415,110/872/921/1/1108729211.geojson,borough,85683067,hkigis,,,FI
"24.5025871854473,60.1637696395564,24.6428145018637,60.2310212822057",uuuu,85633143,,377aaf19e5bd368d218966a7d5190549,,7d6883a7e6daa3408476cd115ec8075c,60.197643,24.574150,1108729213,uuuu,FI,FI,1507246136,60.197267,24.574190,101748415,Suur-Kauklahti,101748415,110/872/921/3/1108729213.geojson,borough,85683067,hkigis,,,FI
"24.499291110226,60.182184810562,24.7298889211718,60.3262861800864",uuuu,85633143,,4b80602afead10fd2edb2d9a863adb7a,,1084658fb1c307e915fb40b1f83a1836,60.252533,24.604007,1108729217,uuuu,FI,FI,1507246136,60.259658,24.592649,101748415,Vanha-Espoo,101748415,110/872/921/7/1108729217.geojson,borough,85683067,hkigis,,,FI
"24.5624761508819,60.2428268081863,24.7717676080513,60.3638030734883",uuuu,85633143,,f58973fa4a9b974ba1425b648881b999,,d8618fe4701f5faf471d37fa848b7575,60.306495,24.686829,1108729219,uuuu,FI,FI,1507246136,60.303636,24.697147,101748415,Pohjois-Espoo,101748415,110/872/921/9/1108729219.geojson,borough,85683067,hkigis,,,FI
"24.6866153033452,60.0999725988127,24.8372962980333,60.2044102345672",uuuu,85633143,,a43f3d8e118e698fb472cfe3d0f909a3,,d9407829fbedba717df163c469a2b8d6,60.150183,24.760638,1108729221,uuuu,FI,FI,1507246136,60.128266,24.784671,101748415,Suur-Matinkyla,101748415,110/872/922/1/1108729221.geojson,borough,85683067,hkigis,,,FI
"24.6902624893631,60.2006483021388,24.8513649494307,60.2656369001188",uuuu,85633143,,ad954d8328f3fac9edae660b44b1557a,,cb81d093d5509a82bf6e4d578a2060a1,60.229136,24.779105,1108729223,uuuu,FI,FI,1507246136,60.225898,24.771245,101748415,Suur-Leppavaara,101748415,110/872/922/3/1108729223.geojson,borough,85683067,hkigis,,,FI
"24.7417619285754,60.1390468473615,24.846858547966,60.2093228890243",uuuu,85633143,,ca2ecd3b88e9390711b72602fbc95cab,,137eb16b7c1087fe6df570fb9eb68782,60.178167,24.799375,1108729225,uuuu,FI,FI,1507246136,60.178320,24.799368,101748415,Suur-Tapiola,101748415,110/872/922/5/1108729225.geojson,borough,85683067,hkigis,,,FI
"24.7461845340154,60.284537762271,24.9430919106369,60.4012268797765",uuuu,85633143,,72f4911489b069923c5aca76dd13a469,,c13c58b85fab4c702fcc53c20cc55fb9,60.343581,24.841806,1108729481,uuuu,FI,FI,1507246136,60.344757,24.843306,101748419,Kivisto,101748419,110/872/948/1/1108729481.geojson,borough,85683067,hkigis,,,FI
"24.8633702307495,60.2644376259915,24.9965386721273,60.3384471629062",uuuu,85633143,,b8f5a0503659327487f51b0bf2de3778,,ade09892eecf6b053fa16b219087bf52,60.302041,24.935550,1108729489,uuuu,FI,FI,1507246136,60.302959,24.934273,101748419,Aviapolis,101748419,110/872/948/9/1108729489.geojson,borough,85683067,hkigis,,,FI
"24.9752152659945,60.2724847557756,25.0975941433842,60.3246813046424",uuuu,85633143,,630af568c5b6588f0bf36a0fb703bfb4,,96ce96bb0c85cea583c539c00cfbdd4e,60.298040,25.039310,1108729491,uuuu,FI,FI,1507246136,60.303353,25.035142,101748419,Tikkurila,101748419,110/872/949/1/1108729491.geojson,borough,85683067,hkigis,,,FI
"24.9890018733001,60.3036837271176,25.1165411441128,60.3444346101094",uuuu,85633143,,6071b75b2ef758c73355ecf0e0c68df7,,03da653d7db2e501f6328585ea38c00c,60.325826,25.057668,1108729493,uuuu,FI,FI,1507246136,60.324463,25.062924,101748419,Koivukyla,101748419,110/872/949/3/1108729493.geojson,borough,85683067,hkigis,,,FI
"25.082422911551,60.2372155411436,25.1930752392541,60.3286828001115",uuuu,85633143,,7d7e11c26aa86bd83f2a45740d9e6a76,,bb52ccdb10a6b82cdf30dee5f851783b,60.282055,25.131230,1108729495,uuuu,FI,FI,1507246136,60.290160,25.122846,101748419,Hakunila,101748419,110/872/949/5/1108729495.geojson,borough,85683067,hkigis,,,FI
"25.0211506771804,60.3316629305636,25.1527209113413,60.374474395715",uuuu,85633143,,5b11c3a699f4464055d35c2eafaf89ce,,0174cc105a8b5ebfdaea247405b2b6e0,60.352793,25.088887,1108729497,uuuu,FI,FI,1507246136,60.349706,25.088916,101748419,Korso,101748419,110/872/949/7/1108729497.geojson,borough,85683067,hkigis,,,FI
"24.760878126392,60.2415236028412,24.8928132442714,60.3253849269443",uuuu,85633143,,c98c86c7a5216b37dfaedf5aecd34558,,af0f489dba6e6efaba86857cc5b41581,60.278195,24.817637,1108729499,uuuu,FI,FI,1507246136,60.278677,24.796702,101748419,Myyrmaki,101748419,110/872/949/9/1108729499.geojson,borough,85683067,hkigis,,,FI
"4.75483715531013,52.3269251202789,4.85049248342291,52.40028105590423",uuuu,85633337,2017-10-10,798c7e1d428c4810b4ffe45bedaf7f3d,,be0dfddbdf99ff589b9192872540cf88,52.366430,4.803308,1108802279,uuuu,NL,NL,1513269515,52.366883,4.804221,101751893,Nieuw-West,101751893,110/880/227/9/1108802279.geojson,borough,85687053,amsgis,1158844287,,NL
"4.81712155011333,52.32141328547759,4.91498424970674,52.36205506359296",uuuu,85633337,2017-10-10,a35c47b3655ba88b00f173a9fb618b86,,8781c2257ba50241c836e488ba37f5b0,52.341344,4.874729,1108802281,uuuu,NL,NL,1513269515,52.341389,4.875471,101751893,Zuid,101751893,110/880/228/1/1108802281.geojson,borough,85687053,amsgis,1158844283,,NL
"4.87443424290847,52.35793318755799,4.93296846349079,52.38869092910546",uuuu,85633337,2017-10-10,a4470df652aa896fa8ce85d27aa636f4,,32ceff802c0a080e480f98df5916a053,52.371617,4.899732,1108802283,uuuu,NL,NL,1513269516,52.370387,4.899177,101751893,Centrum,101751893,110/880/228/3/1108802283.geojson,borough,85687053,amsgis,1158844279,,NL
"4.83533106918954,52.35640773545131,4.89507757046463,52.3993768789427",uuuu,85633337,2017-10-10,bf7b3b36ac610564ce14133c2ab18ae6,,d4e3dd9fe90ed48b4840677dd6ca26aa,52.379044,4.862890,1108802285,uuuu,NL,NL,1513269516,52.377704,4.860831,101751893,West,101751893,110/880/228/5/1108802285.geojson,borough,85687053,amsgis,1158844285,,NL
"4.72875892815126,52.39189264715832,4.88585529651111,52.43106382818931",uuuu,85633337,,0ff7ca6e68f1531012e4bb3fe3f36f73,,7408aa26c47872bce56d5af4b770ac36,52.409758,4.800355,1108802287,uuuu,NL,NL,1507246137,52.412196,4.792531,101751893,Westpoort,101751893,110/880/228/7/1108802287.geojson,borough,85687053,amsgis,,85798675,NL
"4.89522339028572,52.31824800913657,5.03905650021708,52.3826498804079",uuuu,85633337,2017-10-10,4620f8c574cfd591507b950f0add0897,,f78e004d1cb4fd4b1183fde542ac4143,52.357235,4.962507,1108802289,uuuu,NL,NL,1513269516,52.364321,4.951619,101751893,Oost,101751893,110/880/228/9/1108802289.geojson,borough,85687053,amsgis,1158844281,,NL
"4.85571248545015,52.36822923651254,5.07916222004067,52.43067866256748",uuuu,85633337,2017-10-10,4c5ffaafcbb26c93a8eedf8118ea7650,,381781bd14f3efc60378b35b6811a6bf,52.399956,4.976150,1108802291,uuuu,NL,NL,1513269517,52.396832,4.996351,101751893,Noord,101751893,110/880/229/1/1108802291.geojson,borough,85687053,amsgis,1158844277,,NL
"4.9293282066658,52.27817419954609,5.02154319683453,52.3311599486827",uuuu,85633337,2017-10-10,d928c771261d691ca7980155fc190b05,,ace10f5ada5122b16be7af77d97c10ef,52.306558,4.973244,1108802293,uuuu,NL,NL,1513269517,52.306761,4.973228,101751893,Zuidoost,101751893,110/880/229/3/1108802293.geojson,borough,85687053,amsgis,1158844289,101751895,NL
"4.50597927651829,51.86877563822572,4.57632845431604,51.90564645874839",uuuu,85633337,,8f32d8703c807d9e07814585b3f4c7cb,,cf0645c3b8fdd0de037e079aa1214873,51.887840,4.543405,1158831761,uuuu,NL,NL,1513535657,51.887934,4.543246,101751843,IJsselmonde,101751843,115/883/176/1/1158831761.geojson,borough,85687041,cbsnl,,"1108805721,1108937945",NL
"4.33061353824467,51.84211825513447,4.38803097371331,51.87738225904241",uuuu,85633337,,2005773ab7055b25fd5a8e5e7bb9ed51,,82912d058dda09be04718448ea79401f,51.861728,4.363263,1158831763,uuuu,NL,NL,1513535660,51.865397,4.363059,101751843,Hoogvliet,101751843,115/883/176/3/1158831763.geojson,borough,85687041,cbsnl,,"1108805727,1108937955",NL
"3.95999091147741,51.8643017913781,4.33554008602883,51.99191787678365",uuuu,85633337,,c6ff8376626cf400b30a2d119269f6f3,,fa10786a9eb5f98b45f47d3964b5b3a3,51.933400,4.130867,1158831791,uuuu,NL,NL,1513535661,51.936362,4.169997,101751843,Botlek-Europoort-Maasvlakte,101751843,115/883/179/1/1158831791.geojson,borough,85687041,cbsnl,,"1108805737,1108937965",NL
"4.45682451222018,51.93949818361098,4.52890180055191,51.98054916040338",uuuu,85633337,,b73f2d23d2b4be178f075d0071e85ebc,,f066f2253e882f734de54b125a3324d6,51.957651,4.487372,1158831793,uuuu,NL,NL,1513535771,51.957877,4.486999,101751843,Hillegersberg-Schiebroek,101751843,115/883/179/3/1158831793.geojson,borough,85687041,cbsnl,,"1108805717,1108937951",NL
"4.04560198014175,51.93372746514365,4.21968772165247,52.00184112870213",uuuu,85633337,,4246e30ae86900d2fb738b2af7684c85,,113e39863f7c0faa7dc14f6cabe67816,51.970707,4.149127,1158831797,uuuu,NL,NL,1513535773,51.978051,4.140171,101751843,Hoek van Holland,101751843,115/883/179/7/1158831797.geojson,borough,85687041,cbsnl,,"1108805729,101751843",NL
"4.48450720482891,51.89996705442889,4.5424659464845,51.94892360904284",uuuu,85633337,,ae72f1c02163e1b58393b4dd6cf8c51b,,1cf2321d094344403df742e992f8d095,51.927182,4.515650,1158831799,uuuu,NL,NL,1513535774,51.933046,4.503392,101751843,Kralingen-Crooswijk,101751843,115/883/179/9/1158831799.geojson,borough,85687041,cbsnl,,"1108805719,1108938017",NL
"4.37213743271181,51.86641833361818,4.46341620042723,51.9024160860416",uuuu,85633337,,d0d0d4c2fdc438acf7f83966bc8e03f1,,364e6f37b427fcf4fc9da68017ed558a,51.885591,4.424650,1158831803,uuuu,NL,NL,1513535777,51.883767,4.425429,101751843,Waalhaven-Eemhaven,101751843,115/883/180/3/1158831803.geojson,borough,85687041,cbsnl,,"1108805731,1108937949",NL
"4.85571248545015,52.36822923651254,5.07916222004067,52.43067866256748",uuuu,85633337,,4699d4b233ed3584deae568fb05c1d2d,,381781bd14f3efc60378b35b6811a6bf,52.399956,4.976150,1158844277,uuuu,NL,NL,1513269530,52.402059,4.916316,101751893,Noord,101751893,115/884/427/7/1158844277.geojson,borough,85687053,amsgis,,"1108802291,1108945253",NL
"4.87443424290847,52.35793318755799,4.93296846349079,52.38869092910546",uuuu,85633337,,0812998b5467e2b2cd77cf7e4b82145d,,32ceff802c0a080e480f98df5916a053,52.371617,4.899732,1158844279,uuuu,NL,NL,1513269558,52.372165,4.895087,101751893,Centrum,101751893,115/884/427/9/1158844279.geojson,borough,85687053,amsgis,,"1108802283,1108945255",NL
"4.89522339028572,52.31824800913657,5.03905650021708,52.3826498804079",uuuu,85633337,,06bedaedc29fe64265b22405c42e58bf,,f78e004d1cb4fd4b1183fde542ac4143,52.357235,4.962507,1158844281,uuuu,NL,NL,1513269624,52.358957,4.950877,101751893,Oost,101751893,115/884/428/1/1158844281.geojson,borough,85687053,amsgis,,"1108802289,1108945257",NL
"4.81712155011333,52.32141328547759,4.91498424970674,52.36205506359296",uuuu,85633337,,2f96a601db76a6668a8c39f7fecfbf8d,,8781c2257ba50241c836e488ba37f5b0,52.341344,4.874729,1158844283,uuuu,NL,NL,1513269669,52.344802,4.873286,101751893,Zuid,101751893,115/884/428/3/1158844283.geojson,borough,85687053,amsgis,,"1108802281,1108945259",NL
"4.83533106918954,52.35640773545131,4.89507757046463,52.3993768789427",uuuu,85633337,,532b1947d0995664a01ba5393db2fb97,,d4e3dd9fe90ed48b4840677dd6ca26aa,52.379044,4.862890,1158844285,uuuu,NL,NL,1513269804,52.378383,4.861327,101751893,West,101751893,115/884/428/5/1158844285.geojson,borough,85687053,amsgis,,"1108802285,1108945261",NL
"4.75483715531013,52.3269251202789,4.85049248342291,52.40028105590423",uuuu,85633337,,cf489f0d0b3faf1f538bf77c936d5247,,be0dfddbdf99ff589b9192872540cf88,52.366430,4.803308,1158844287,uuuu,NL,NL,1513269827,52.364793,4.805080,101751893,Nieuw-West,101751893,115/884/428/7/1158844287.geojson,borough,85687053,amsgis,,"1108802279,1108945263",NL
"4.9293282066658,52.27817419954609,5.02154319683453,52.3311599486827",uuuu,85633337,,b2696487a5bd718e0a8e23f7789e83de,,ace10f5ada5122b16be7af77d97c10ef,52.306558,4.973244,1158844289,uuuu,NL,NL,1513269834,52.307710,4.971317,101751893,Zuidoost,101751893,115/884/428/9/1158844289.geojson,borough,85687053,amsgis,,"1108802293,1108945273",NL
"13.1866030018162,52.46649580229641,13.34143397251715,52.54942923759426",uuuu,85633111,,afe59022b995c34b87dfce73c398785d,,54d7d87e946f6dd55633e37b92e9fdc5,52.501039,13.270249,1108815535,uuuu,DE,DE,1507246141,52.498320,13.270242,101748799,Charlottenburg-Wilmersdorf,101748799,110/881/553/5/1108815535.geojson,borough,85682499,ssuberlin,,,DE
"13.36827317331647,52.48277049639746,13.49145352040911,52.530972648953",uuuu,85633111,,9fb1a3cde51445ee995e7d640ffee3da,,7226692db6db8e7038986a454162bd62,52.503811,13.428234,1108815537,uuuu,DE,DE,1507246141,52.511565,13.443621,101748799,Friedrichshain-Kreuzberg,101748799,110/881/553/7/1108815537.geojson,borough,85682499,ssuberlin,,,DE
"13.45620788891906,52.46793766910944,13.56770478047506,52.59645730581137",uuuu,85633111,,df4f9b9e5995113f1ab3396e195a0394,,b129e3bb6cd030a79c0c1b075e34ca5c,52.534910,13.509767,1108815539,uuuu,DE,DE,1507246141,52.527931,13.495900,101748799,Lichtenberg,101748799,110/881/553/9/1108815539.geojson,borough,85682499,ssuberlin,,,DE
"13.51672717203592,52.47047541929476,13.65851786012915,52.57450908738485",uuuu,85633111,,98962734df1dd9cbbed115f2663b9c5a,,b00790d4d00e97a71b70e6c76d84bdd8,52.521121,13.578832,1108815541,uuuu,DE,DE,1507246141,52.515826,13.574036,101748799,Marzahn-Hellersdorf,101748799,110/881/554/1/1108815541.geojson,borough,85682499,ssuberlin,,,DE
"13.30153045650981,52.49873536941501,13.42940211587212,52.5677176290265",uuuu,85633111,,c7294130edf8ebb7ecd438f9c906a57c,,5f91d846d1548e4f64a3f7e9de91c596,52.532895,13.365970,1108815545,uuuu,DE,DE,1507246141,52.530427,13.360794,101748799,Mitte,101748799,110/881/554/5/1108815545.geojson,borough,85682499,ssuberlin,,,DE
"13.39949565940872,52.39594638801756,13.52406546145061,52.49586748915782",uuuu,85633111,,2408281641e2957ccb1c6c19cdb3bdc7,,bfabb9455af326d66a0fbde0fe35d6ec,52.441082,13.454965,1108815547,uuuu,DE,DE,1507246141,52.440484,13.443664,101748799,Neukolln,101748799,110/881/554/7/1108815547.geojson,borough,85682499,ssuberlin,,,DE
"13.34755022281665,52.51992755285018,13.52301900950822,52.67550857858524",uuuu,85633111,,83f814176085e6767775d655b29d8385,,4e7e38e930229130f83a88ea21cc7311,52.597229,13.440279,1108815549,uuuu,DE,DE,1507246141,52.590515,13.434299,101748799,Pankow,101748799,110/881/554/9/1108815549.geojson,borough,85682499,ssuberlin,,,DE
"13.20161278414064,52.54880636410428,13.38927685483754,52.66073359962969",uuuu,85633111,,302c13bf02cfa9fc3fa82bea3a466092,,5d3b915dd1a34d0914706aa1b90fbfdf,52.595674,13.291344,1108815551,uuuu,DE,DE,1507246141,52.591439,13.284953,101748799,Reinickendorf,101748799,110/881/555/1/1108815551.geojson,borough,85682499,ssuberlin,,,DE
"13.109296356516,52.4396114376684,13.28227200938862,52.59877414343718",uuuu,85633111,,88cdea6bd77682d71be589f898609cf1,,5b685b048ecc6594a99fa50ade1ef205,52.525791,13.178819,1108815553,uuuu,DE,DE,1507246141,52.544354,13.186056,101748799,Spandau,101748799,110/881/555/3/1108815553.geojson,borough,85682499,ssuberlin,,,DE
"13.08835367820428,52.38723564212338,13.37162459420015,52.47181518698975",uuuu,85633111,,fdb660d19a41d77ff976568b1ae5ec7e,,094f892bd8c00b2385dfa6b198bb3c84,52.434843,13.239075,1108815555,uuuu,DE,DE,1507246141,52.436132,13.272296,101748799,Steglitz-Zehlendorf,101748799,110/881/555/5/1108815555.geojson,borough,85682499,ssuberlin,,,DE
"13.31998304233487,52.3761399123218,13.42746193837228,52.50496677661963",uuuu,85633111,,e438f1f27db33f03e29b912c121240a7,,70c234be7fe2dda2e70074e63f5869d6,52.441117,13.380739,1108815557,uuuu,DE,DE,1507246141,52.456016,13.388943,101748799,Tempelhof-Schoneberg,101748799,110/881/555/7/1108815557.geojson,borough,85682499,ssuberlin,,,DE
"13.43965471730573,52.33823881023583,13.76113111158096,52.49757623254297",uuuu,85633111,,14e949310714e995004d78f9e487bce2,,291b865c397f2704e65d5f63502cf564,52.429583,13.611210,1108815559,uuuu,DE,DE,1507246141,52.424291,13.624591,101748799,Treptow-Kopenick,101748799,110/881/555/9/1108815559.geojson,borough,85682499,ssuberlin,,,DE
"-0.21608848587412,51.48480106321509,-0.11110148539628,51.5397933092267",uuuu,85633159,,a2e82d53afd0e1abdb02c8df08b070af,,93f1269d6c2a14253ad075cabe40a42b,51.513899,-0.161304,1158857245,uuuu,GB,GB,1513913220,51.497991,-0.128750,101750367,Westminster,101750367,115/885/724/5/1158857245.geojson,borough,-1,gbr-datalondon,,"85866387,85684061,404435563",GB
"-0.111442547927871,51.42060913676056,-0.032237464941112,51.508625244665915",uuuu,85633159,,759afbb47a58dab41b711847f6314423,,60eb8bc4013266c6fdbd02c2d0b14bba,51.473146,-0.074602,1158857247,uuuu,GB,GB,1513913226,51.486392,-0.079235,101750367,Southwark,101750367,115/885/724/7/1158857247.geojson,borough,-1,gbr-datalondon,,"85866375,85684289,404440975",GB
"-0.151231399267392,51.41099109196113,-0.078306682399956,51.508440711528664",uuuu,85633159,,1bb0012c62c0927a0a53e0a1d74598f4,,d5881b0c1cb68d1bd5b2e1326d57faa6,51.453089,-0.118279,1158857249,uuuu,GB,GB,1513913231,51.496102,-0.116494,101750367,Lambeth,101750367,115/885/724/9/1158857249.geojson,borough,-1,gbr-datalondon,,"85866379,85684533,404432059",GB
"-0.259113039407026,51.41775200619059,-0.126363660081452,51.48504875775998",uuuu,85633159,,cab317385171bee77094f26dbec8097f,,e71a98d8e5e627cf58fc37bb322f18f2,51.451354,-0.186443,1158857251,uuuu,GB,GB,1513913234,51.455404,-0.191963,101750367,Wandsworth,101750367,115/885/725/1/1158857251.geojson,borough,-1,gbr-datalondon,,"85866385,85683671,404434007",GB
"0.07465268963205,51.40848347365358,0.217615856903035,51.513294221762095",uuuu,85633159,,20f07154188fee15945fb7b6673774fa,,f40094e72270af02d390ab4269ea20a8,51.458819,0.140355,1158857255,uuuu,GB,GB,1513913238,51.445655,0.148990,101750367,Bexley,101750367,115/885/725/5/1158857255.geojson,borough,-1,gbr-datalondon,,"420781645,85683763,404432593",GB
"-0.113821030200722,51.507788985221524,-0.072749284309804,51.52332127422235",uuuu,85633159,,811bea288d05453e25c88431079ecf96,,0f2bda106eb2faf3b1883f8809fe05df,51.514845,-0.092171,1158857257,uuuu,GB,GB,1513913243,51.513263,-0.089878,101750367,City,101750367,115/885/725/7/1158857257.geojson,borough,-1,gbr-datalondon,,"420781621,85684081,404453147",GB
"-0.46150226755013,51.42073927141819,-0.244420551360859,51.50285053734015",uuuu,85633159,,8a196ca999564d0449db775e90ff1795,,aa608f6a6d7effb650e363a53534179a,51.468378,-0.367123,1158857259,uuuu,GB,GB,1513913245,51.466478,-0.361878,101750367,Hounslow,101750367,115/885/725/9/1158857259.geojson,borough,-1,gbr-datalondon,,"420781647,85684141,404449367",GB
"-0.510375069372048,51.45326668335251,-0.375929149237083,51.63175902608704",uuuu,85633159,,5b261494845b7fdf72cb6cddb34a75fc,,2f108b18e4cd4c9532b3b2ef7f562b0e,51.541513,-0.445658,1158857261,uuuu,GB,GB,1513913252,51.533593,-0.449482,101750367,Hillingdon,101750367,115/885/726/1/1158857261.geojson,borough,-1,gbr-datalondon,,"85788217,85683711,404438215",GB
"-0.404071930986525,51.55306134589119,-0.267155870220736,51.640531760679686",uuuu,85633159,,ebc9aa452e93739b9807f381a1fcc9ec,,193d69feb82c87cf9a705a56c7f3a7fe,51.597723,-0.341267,1158857263,uuuu,GB,GB,1513913257,51.581439,-0.334813,101750367,Harrow,101750367,115/885/726/3/1158857263.geojson,borough,-1,gbr-datalondon,,"85787969,85683765,404436581",GB
"-0.419621630372858,51.49047038937508,-0.245086769993154,51.55968365416931",uuuu,85633159,,aec6541c8d77fd971230c740c31c0175,,8d912b7e1a21f6ad337c1ee06d36099b,51.522475,-0.331026,1158857265,uuuu,GB,GB,1513913260,51.510513,-0.307506,101750367,Ealing,101750367,115/885/726/5/1158857265.geojson,borough,-1,gbr-datalondon,,"85866389,85683679,404437233",GB
"-0.335584420386048,51.52765401074499,-0.191483480442048,51.60037034806021",uuuu,85633159,,f45167eff12f2d817fc0639b4e02af80,,ad3dd73111aeed9c1fc7306f7d9f27de,51.558556,-0.267821,1158857267,uuuu,GB,GB,1513913264,51.561808,-0.265970,101750367,Brent,101750367,115/885/726/7/1158857267.geojson,borough,-1,gbr-datalondon,,"85865123,85684003,404429757",GB
"-0.079429726338658,51.485961906351726,0.009206172213112,51.544685901916814",uuuu,85633159,,759767ed2cb68367da560607861f2f15,,69b9d94bd62ccc4957df6ffa9918c8a9,51.517171,-0.035588,1158857269,uuuu,GB,GB,1513913268,51.520821,-0.056456,101750367,Tower Hamlets,101750367,115/885/726/9/1158857269.geojson,borough,-1,gbr-datalondon,,"85865133,85684467,404449503",GB
"-0.104510704571625,51.51981440855312,-0.016527214279932,51.57778428185774",uuuu,85633159,,0ae8488207a1f8694715e12d34f58271,,0c847af411bb151437a19956b59bf448,51.552267,-0.063316,1158857273,uuuu,GB,GB,1513913272,51.545361,-0.056455,101750367,Hackney,101750367,115/885/727/3/1158857273.geojson,borough,-1,gbr-datalondon,,"85866371,85683683,404436049",GB
"-0.142536449966723,51.518540994788964,-0.076357638796747,51.57550832066108",uuuu,85633159,,496cf5497feba49c04b505641c9c94b1,,663ca1d9d8667c621465fe16f87b5c14,51.548487,-0.110251,1158857275,uuuu,GB,GB,1513913275,51.539064,-0.101269,101750367,Islington,101750367,115/885/727/5/1158857275.geojson,borough,-1,gbr-datalondon,,"85866373,85684071,404447411",GB
"-0.21350132138653,51.51265213444894,-0.105349881649722,51.57297870611019",uuuu,85633159,,adfece0036817444a5fc30d57aa861a9,,e07f97938fba53ca0c4fc29f28949b98,51.546394,-0.157424,1158857277,uuuu,GB,GB,1513913278,51.543487,-0.163523,101750367,Camden,101750367,115/885/727/7/1158857277.geojson,borough,-1,gbr-datalondon,,"85865125,85684597,404448211",GB
"-0.171285248862217,51.56463516069448,-0.041447834964023,51.611214795012685",uuuu,85633159,,edb4ae5a097bb377883ed981a6141bc9,,91e0c6016804dd5009fa650712429ad4,51.590372,-0.107470,1158857279,uuuu,GB,GB,1513913283,51.595035,-0.091628,101750367,Haringey,101750367,115/885/727/9/1158857279.geojson,borough,-1,gbr-datalondon,,"85865129,85684121,404429621",GB
"-0.185891042271341,51.60563458389422,-0.008948491038628,51.69187411610748",uuuu,85633159,,15ee14216d7c1544e80c564fcb95eab7,,a69967f9b4dda605237d2ff9892499fc,51.650995,-0.087272,1158857281,uuuu,GB,GB,1513913285,51.654355,-0.082138,101750367,Enfield,101750367,115/885/728/1/1158857281.geojson,borough,-1,gbr-datalondon,,"85787287,85684381,404444933",GB
"-0.305597635768925,51.555186111491196,-0.129147235439372,51.67016685780045",uuuu,85633159,,cb8739d7bf7d769f47c7e26a91cdf43d,,0a6dd99ec6fcb77dcda8bbc8e6fdb6d5,51.616027,-0.210017,1158857285,uuuu,GB,GB,1513913289,51.650054,-0.198560,101750367,Barnet,101750367,115/885/728/5/1158857285.geojson,borough,-1,gbr-datalondon,,"85785487,85684613,404455071",GB
"-0.062274580068915,51.549925391962574,0.025712389743338,51.64652661198177",uuuu,85633159,,023a8223e6ff49d4d99e20ac94029d67,,4435aecace6c7b6f69f6245d1f055088,51.594033,-0.012640,1158857287,uuuu,GB,GB,1513913295,51.603059,-0.014671,101750367,Waltham Forest,101750367,115/885/728/7/1158857287.geojson,borough,-1,gbr-datalondon,,"85865135,85684273,404445563",GB
"0.008678454928303,51.543568895000476,0.149485042345979,51.629022491315595",uuuu,85633159,,476642001701f46bdf750d238e3a0e06,,53d1ec7eac9e1cb575b31fb900fd8925,51.585672,0.075867,1158857291,uuuu,GB,GB,1513913298,51.574140,0.048004,101750367,Redbridge,101750367,115/885/729/1/1158857291.geojson,borough,-1,gbr-datalondon,,"85860293,85684441,404432837",GB
"-0.021264143383116,51.49830663587108,0.096762742338257,51.56398899260977",uuuu,85633159,,ee594a08b9c118cd62f666ce18b44885,,b392892346bdd90ff7cdce34fdf73387,51.528345,0.036381,1158857293,uuuu,GB,GB,1513913302,51.521002,0.031675,101750367,Newham,101750367,115/885/729/3/1158857293.geojson,borough,-1,gbr-datalondon,,"85789375,85684411,404448287",GB
"-0.026408663328021,51.423734989522536,0.124160811398985,51.51144466513163",uuuu,85633159,,bb825c87496f5a1256c42617decfc20c,,ccc9b27d5bc24c51f7f39b60f19a76de,51.472807,0.056244,1158857295,uuuu,GB,GB,1513913306,51.480060,-0.002217,101750367,Greenwich,101750367,115/885/729/5/1158857295.geojson,borough,-1,gbr-datalondon,,"85866377,85683707,404431621",GB
"-0.081111977203322,51.28935506418583,0.162357994392372,51.44431707349959",uuuu,85633159,,f3b637053b05ca8178031da84f7f987a,,70317579fc509458a8f8ac5b7146af13,51.371999,0.051524,1158857297,uuuu,GB,GB,1513913309,51.401639,0.020742,101750367,Bromley,101750367,115/885/729/7/1158857297.geojson,borough,-1,gbr-datalondon,,"85786055,85684235,404440075",GB
"-0.07509330289599,51.41354996711693,0.039045294303896,51.49305547724405",uuuu,85633159,,2aab54e9d95532d5006542f727647e6c,,29c3c2f056edf5a7f0abe304d5c6f757,51.448091,-0.020255,1158857299,uuuu,GB,GB,1513913316,51.461009,-0.014498,101750367,Lewisham,101750367,115/885/729/9/1158857299.geojson,borough,-1,gbr-datalondon,,"85866383,85684337,404450197",GB
"-0.161905469637285,51.286760162469804,0.003281847729713,51.42324421000363",uuuu,85633159,,494bf67dd7e3271909f5fb376e4f0af5,,942223f40a01d0a92bab264dfc8cbbf2,51.355335,-0.087157,1158857301,uuuu,GB,GB,1513913319,51.373327,-0.092786,101750367,Croydon,101750367,115/885/730/1/1158857301.geojson,borough,-1,gbr-datalondon,,"85786907,85684009,404435215",GB
"-0.245429184402135,51.32151059282659,-0.116919090022911,51.39341853690756",uuuu,85633159,,16dcd5527534006a24d854319257f1cd,,d2f8dfc0db2d41184c952848b69544e5,51.362090,-0.177573,1158857303,uuuu,GB,GB,1513913324,51.364683,-0.192916,101750367,Sutton,101750367,115/885/730/3/1158857303.geojson,borough,-1,gbr-datalondon,,"85790847,85683649,1158857303",GB
"-0.254247736290626,51.38015046424503,-0.124151407772434,51.44147463638048",uuuu,85633159,,3e980317b241c99902b986185cc7d250,,d89e6df3e8784912043dd7a226421002,51.409950,-0.197252,1158857305,uuuu,GB,GB,1513913327,51.413048,-0.188837,101750367,Merton,101750367,115/885/730/5/1158857305.geojson,borough,-1,gbr-datalondon,,"85789073,85684099,404433391",GB
"-0.330756432572245,51.32631964015326,-0.238744586054885,51.437290697426505",uuuu,85633159,,8c694ea7d1cce27eab43e2080a898cdb,,5d22d5352484d5b74e0c446331c6d651,51.387906,-0.286900,1158857309,uuuu,GB,GB,1513913330,51.409565,-0.310941,101750367,Kingston upon Thames,101750367,115/885/730/9/1158857309.geojson,borough,-1,gbr-datalondon,,"85788611,85684387,404451491",GB
"-0.392906268905721,51.39143157159357,-0.222942676404443,51.488996039869924",uuuu,85633159,,cab2223ea77da1d7c7ef053812f5a55c,,741c80a1978b9fd872ae2adae43b334f,51.442174,-0.312969,1158857311,uuuu,GB,GB,1513913333,51.458877,-0.301425,101750367,Richmond upon Thames,101750367,115/885/731/1/1158857311.geojson,borough,-1,gbr-datalondon,,"85790051,85684151,404434355",GB
"0.138156947654841,51.487688501701776,0.33401556363443,51.63173446383842",uuuu,85633159,,4bb721176760c42d9252b46422481dfb,,1588310614956378d499ff0aa6dc03b5,51.564387,0.221108,1158857313,uuuu,GB,GB,1513913339,51.587443,0.198443,101750367,Havering,101750367,115/885/731/3/1158857313.geojson,borough,-1,gbr-datalondon,,"85865131,85683841,404455367",GB
"-0.255090332280583,51.464833796759905,-0.179424077345836,51.532752399845165",uuuu,85633159,,a014d6e16fc2efbd5dabbd06c29ea0e2,,29421f5a87994c30adc3ff69faa1c181,51.495954,-0.221290,1158857315,uuuu,GB,GB,1513913344,51.503489,-0.231270,101750367,Hammersmith and Fulham,101750367,115/885/731/5/1158857315.geojson,borough,-1,gbr-datalondon,,"85684299,404433331",GB
"-0.228727695215349,51.477353928525844,-0.150003791595302,51.530352740192306",uuuu,85633159,,c7fb70a0bc7210973fba6fbd535434df,,4183f42004566f3ddd31e9586527a29d,51.501613,-0.192771,1158857317,uuuu,GB,GB,1513913347,51.501136,-0.196631,101750367,Kensington and Chelsea,101750367,115/885/731/7/1158857317.geojson,borough,-1,gbr-datalondon,,"85683667,404445833",GB
"0.066649049219525,51.51196276557964,0.190189876266682,51.59943648202244",uuuu,85633159,,5945796b9f703cf5d7894138f902a888,,ea06af7d30267ec79816d18277fa3f65,51.545277,0.133528,1158857319,uuuu,GB,GB,1513913350,51.542463,0.139910,101750367,Barking and Dagenham,101750367,115/885/731/9/1158857319.geojson,borough,-1,gbr-datalondon,,"85683637,404430431",GB
"30.306043,59.932739,30.306043,59.932739",uuuu,85632685,,a3837e1b125b4ae62f40bc13367e434a,,f61abe6267c2323c827132a7611fcba3,59.932739,30.306043,1158857533,uuuu,RU,RU,1510870328,0.000000,0.000000,1158857531,Admiralteyskiy Rayon,1158857531,115/885/753/3/1158857533.geojson,borough,85688069,unknown,,890479951,RU
"30.58244090679203,59.78119229130351,30.58244090679203,59.78119229130351",uuuu,85632685,,a6c6e521c198c1d87e2aef556b5d71fb,,702f8d6fe8c95dd4021ced6769e8d465,59.781192,30.582441,1158857537,uuuu,RU,RU,1510870328,59.781192,30.582441,1158857531,Kolpinsky,1158857531,115/885/753/7/1158857537.geojson,borough,85688069,unknown,,,RU
"29.785259,59.990383,29.785259,59.990383",uuuu,85632685,,53f42bbc553e83e1d6bc38a8e037e3b1,,9ae53f494537c2fe499a17a0194d73b6,59.990383,29.785259,1158857539,uuuu,RU,RU,1510870328,59.991802,29.785266,1158857531,Kronshtadt,1158857531,115/885/753/9/1158857539.geojson,borough,85688069,quattroshapes,,102002383,RU
"29.79468645159407,60.17900813427202,29.79468645159407,60.17900813427202",uuuu,85632685,,358e470849b0d0dad13a765d08e53c77,,110f3be1102690e55ecd52c456ce745c,60.179008,29.794686,1158857543,uuuu,RU,RU,1510870329,60.179008,29.794686,1158857531,Kurortny,1158857531,115/885/754/3/1158857543.geojson,borough,85688069,unknown,,,RU
"29.909505,59.884143,29.909505,59.884143",uuuu,85632685,,f00b4a19245d3150a25aa0ae0a211a37,,6a9ac25edad78f57961433238b872711,59.884143,29.909505,1158857545,uuuu,RU,RU,1510870329,0.000000,0.000000,1158857531,Petrodvortsoviy Rayon,1158857531,115/885/754/5/1158857545.geojson,borough,85688069,unknown,,890485463,RU
"30.417966,59.695102,30.417966,59.695102",uuuu,85632685,,fd5495b5d5c1f4adc2d5db436362e50b,,e77b6525b36a44fdc96ad98716440964,59.695102,30.417966,1158857547,uuuu,RU,RU,1513814087,0.000000,0.000000,1158857531,Pushkinskiy,1158857531,115/885/754/7/1158857547.geojson,borough,85688069,unknown,,890484589,RU
"30.356426,59.931822,30.356426,59.931822",uuuu,85632685,,4f65f480e9e8bbcee267797300f70bce,,0461c8980c3cfb9846abb0a39e8e8d16,59.931822,30.356426,1158857549,uuuu,RU,RU,1513814091,0.000000,0.000000,1158857531,Tsentral'niy,1158857531,115/885/754/9/1158857549.geojson,borough,85688069,unknown,,890487199,RU
"30.33333,59.91667,30.33333,59.91667",uuuu,85632685,,39567508484bbcb0ca3cbc0e022bf87e,,69bd5351830282bec0cf2b176628f6df,59.916670,30.333330,1158858863,uuuu,RU,RU,1510870329,0.000000,0.000000,1158857531,Frunzenskiy Rayon,1158857531,115/885/886/3/1158858863.geojson,borough,85688069,,,890481579,RU
"30.26667,59.98333,30.26667,59.98333",uuuu,85632685,,975a89c53f3482bb13aafd5f131252ac,,87f8e589fb2ece8f857c22d42c13a4f5,59.983330,30.266670,1158858865,uuuu,RU,RU,1510870329,0.000000,0.000000,1158857531,Kalininskiy Rayon,1158857531,115/885/886/5/1158858865.geojson,borough,85688069,,,890481569,RU
"30.28333,59.86667,30.28333,59.86667",uuuu,85632685,,c9e2182f10a1fdc0661e2b825692a487,,672ad2c0f1327d086c1ab38bc3dbe5b9,59.866670,30.283330,1158858867,uuuu,RU,RU,1510870329,0.000000,0.000000,1158857531,Kirovskiy Rayon,1158857531,115/885/886/7/1158858867.geojson,borough,85688069,,,890480521,RU
"30.22132,59.85777,30.22132,59.85777",uuuu,85632685,,1d706207319a3abd67bfa9f7fc5784e1,,30a19eacf373aa96b899a8ede1ff78a1,59.857770,30.221320,1158858869,uuuu,RU,RU,1513814080,0.000000,0.000000,1158857531,Krasnoselâ€™skiy Rayon,1158857531,115/885/886/9/1158858869.geojson,borough,85688069,,,890481971,RU
"30.41103,59.9587,30.41103,59.9587",uuuu,85632685,,9737072ab14a3fd566a795a58c97bdb0,,875b0819417d0fe19b834ef9ba148f04,59.958700,30.411030,1158858871,uuuu,RU,RU,1510870329,0.000000,0.000000,1158857531,Krasnogvardeyskiy Rayon,1158857531,115/885/887/1/1158858871.geojson,borough,85688069,,,890480001,RU
"30.38333,59.88333,30.38333,59.88333",uuuu,85632685,,0cd7b2bb1ae13f55ba51bfec5a4f1760,,916341ee159a60b5485f9349fa289aab,59.883330,30.383330,1158858875,uuuu,RU,RU,1510870329,0.000000,0.000000,1158857531,Moskovskiy Rayon,1158857531,115/885/887/5/1158858875.geojson,borough,85688069,,,890481953,RU
"30.41667,59.9,30.41667,59.9",uuuu,85632685,,6f04897695c01adb8bc06a3d19cac6a3,,50de13807e4acb4b49ee18dbd458f54e,59.900000,30.416670,1158858877,uuuu,RU,RU,1510870329,0.000000,0.000000,1158857531,Nevskiy Rayon,1158857531,115/885/887/7/1158858877.geojson,borough,85688069,,,890479805,RU
"30.3,59.96667,30.3,59.96667",uuuu,85632685,,c2f2f6b2f2a26ab3954d0f1d0998cf85,,1eff36b75aeeef39c48173402840af6e,59.966670,30.300000,1158858879,uuuu,RU,RU,1510870330,0.000000,0.000000,1158857531,Petrogradskiy Rayon,1158857531,115/885/887/9/1158858879.geojson,borough,85688069,,,890481787,RU
"30.35,59.98333,30.35,59.98333",uuuu,85632685,,5f189a828092c481f12187a81080ff32,,c2916b7349592319039396896366a36c,59.983330,30.350000,1158858881,uuuu,RU,RU,1510870330,0.000000,0.000000,1158857531,Vyborgskiy Rayon,1158857531,115/885/888/1/1158858881.geojson,borough,85688069,,,890486755,RU
"30.3,59.95,30.3,59.95",uuuu,85632685,,5e24f632a15493e34e3b45f5f2a4e051,,e1c6baf16128c77f5fc69896ac067ac4,59.950000,30.300000,1158858883,uuuu,RU,RU,1510870330,0.000000,0.000000,1158857531,Vasileostrovskiy Rayon,1158857531,115/885/888/3/1158858883.geojson,borough,85688069,,,890482081,RU
"30.26667,59.98333,30.26667,59.98333",uuuu,85632685,,c6aa458c5425f48899a5ae94496e6d70,,87f8e589fb2ece8f857c22d42c13a4f5,59.983330,30.266670,1158858885,uuuu,RU,RU,1510870330,0.000000,0.000000,1158857531,Zhdanovskiy Rayon,1158857531,115/885/888/5/1158858885.geojson,borough,85688069,,,890486741,RU
"-73.76121457959005,45.50648602786363,-73.62194254702791,45.58732672025133",uuuu,85633041,,e30e21d0a6934eb857cbdc4316b3f76b,,4a2c4a75e831006cca665f05aa150e75,45.544330,-73.677288,1108906763,uuuu,CA,CA,1513810714,45.538280,-73.689090,101736545,Ahuntsic-Cartierville,101736545,110/890/676/3/1108906763.geojson,borough,136251273,mz,,420784399,CA
"4.41550221514494,51.86166723783014,4.51523385091002,51.90034939897026",uuuu,85633337,,6e7fe1a3adc641ba7d6f37196cd74317,,810be58cf05b4d17375a78dac64257ad,51.879497,4.475701,1108804837,uuuu,NL,NL,1507246138,51.879337,4.473828,101751843,Charlois,101751843,110/880/483/7/1108804837.geojson,borough,85687041,cbsnl,,85797257,NL
"4.4547902665544,51.90034939897026,4.50029332448432,51.92628688617186",uuuu,85633337,,294862612e26429b584dfe9899a86316,,a58f57f9de1fa9b2393a2e12ee0ce6db,51.915662,4.476886,1108804841,uuuu,NL,NL,1507246138,51.915461,4.475337,101751843,Rotterdam Centrum,101751843,110/880/484/1/1108804841.geojson,borough,85687041,cbsnl,,85859833,NL
"4.43234165003841,51.92202497464143,4.48995014601549,51.94294787772079",uuuu,85633337,,2f63c3e104ae7c1afab1dc271ae32f8a,,1efaaa27a332cce8e3c7c1faced89b0e,51.931772,4.463772,1108804843,uuuu,NL,NL,1507246138,51.932356,4.463335,101751843,Noord,101751843,110/880/484/3/1108804843.geojson,borough,85687041,cbsnl,,85859789,NL
"4.37930946546433,51.92608048491883,4.46169641663257,51.97662009724616",uuuu,85633337,,99d51f26469cdd8f2b1cb1288474428f,,3ae1cd297d0f472a4b2e27826391381b,51.952281,4.426272,1108805713,uuuu,NL,NL,1507246138,51.941805,4.433252,101751843,Overschie,101751843,110/880/571/3/1108805713.geojson,borough,85687041,cbsnl,,,NL
"4.45682451222018,51.93949818361098,4.52890180055191,51.98054916040338",uuuu,85633337,2017-10-05,106ee9dc1836ddb0fd7afa22efa5197b,,f066f2253e882f734de54b125a3324d6,51.957651,4.487372,1108805717,uuuu,NL,NL,1513535653,51.957884,4.483788,101751843,Hillegersberg-Schiebroek,101751843,110/880/571/7/1108805717.geojson,borough,85687041,cbsnl,1158831793,,NL
"4.48450720482891,51.89996705442889,4.5424659464845,51.94892360904284",uuuu,85633337,2017-10-05,1b2c17b7327aa4d375debbfb74a016dc,,1cf2321d094344403df742e992f8d095,51.927182,4.515650,1108805719,uuuu,NL,NL,1513535653,51.929701,4.519102,101751843,Kralingen-Crooswijk,101751843,110/880/571/9/1108805719.geojson,borough,85687041,cbsnl,1158831799,,NL
"4.50597927651829,51.86877563822572,4.57632845431604,51.90564645874839",uuuu,85633337,,c1243e9361590474fde2c44c2db6eeb9,,cf0645c3b8fdd0de037e079aa1214873,51.887840,4.543405,1108805721,uuuu,NL,NL,1507246138,51.888015,4.544069,101751843,IJsselmonde,101751843,110/880/572/1/1108805721.geojson,borough,85687041,cbsnl,,,NL
"4.37803404199802,51.87813373415527,4.39869078633552,51.89501582369616",uuuu,85633337,,07e7eb6bec6e3abecd418f64633005bb,,850b5df2159ac0b50392f670ca39bc50,51.887638,4.388242,1108805723,uuuu,NL,NL,1507246138,51.887598,4.388047,101751843,Pernis,101751843,110/880/572/3/1108805723.geojson,borough,85687041,cbsnl,,101754727,NL
"4.52365373248229,51.90377557007935,4.6018082645045,51.9942815528221",uuuu,85633337,,537079e10ed295949b919984847304ca,,b8d6a29bb4334c60ef0374e4fcf87031,51.953372,4.557344,1108805725,uuuu,NL,NL,1513579148,51.949556,4.546982,101751843,Prins Alexander,101751843,110/880/572/5/1108805725.geojson,borough,85687041,cbsnl,,85798329,NL
"4.33061353824467,51.84211825513447,4.38803097371331,51.87738225904241",uuuu,85633337,2017-10-05,92eda18ea3cebc67fefd7dfa5b5aa6c7,,82912d058dda09be04718448ea79401f,51.861728,4.363263,1108805727,uuuu,NL,NL,1513535653,51.860955,4.363814,101751843,Hoogvliet,101751843,110/880/572/7/1108805727.geojson,borough,85687041,cbsnl,1158831763,101754659,NL
"4.04560198014175,51.93372746514365,4.21968772165247,52.00184112870213",uuuu,85633337,2017-10-05,12f7af1374fd46dc81dcdfe8454376e3,,113e39863f7c0faa7dc14f6cabe67816,51.970707,4.149127,1108805729,uuuu,NL,NL,1513535654,51.981192,4.134674,101751843,Hoek van Holland,101751843,110/880/572/9/1108805729.geojson,borough,85687041,cbsnl,1158831797,101808077,NL
"4.37213743271181,51.86641833361818,4.46341620042723,51.9024160860416",uuuu,85633337,2017-10-05,49c96f6d3753a6d74b0b0fed4f5daab0,,364e6f37b427fcf4fc9da68017ed558a,51.885591,4.424650,1108805731,uuuu,NL,NL,1513535654,51.883844,4.440375,101751843,Waalhaven-Eemhaven,101751843,110/880/573/1/1108805731.geojson,borough,85687041,cbsnl,1158831803,,NL
"4.31959664516436,51.8717884123197,4.38618988629993,51.89963160443519",uuuu,85633337,,4d6c695384e40957faad23bb14ece983,,73386e88bc3a017209bedbd942dc8a47,51.885962,4.352963,1108805735,uuuu,NL,NL,1507246139,51.887168,4.353600,101751843,Vondelingenplaat,101751843,110/880/573/5/1108805735.geojson,borough,85687041,cbsnl,,,NL
"3.95999091147741,51.8643017913781,4.33554008602883,51.99191787678365",uuuu,85633337,2017-10-05,282cf4d3635cf84b53c2958b5a4e2e5d,,fa10786a9eb5f98b45f47d3964b5b3a3,51.933400,4.130867,1108805737,uuuu,NL,NL,1513535654,51.960041,4.055668,101751843,Botlek-Europoort-Maasvlakte,101751843,110/880/573/7/1108805737.geojson,borough,85687041,cbsnl,1158831791,,NL
"4.39344792289387,51.93725261527683,4.41549203215595,51.94834714577028",uuuu,85633337,,4ba7e800eb05a7feb772e52d8cf7832c,,30cc252095ab614fbb7e1ebaa47308cc,51.942832,4.405852,1108805739,uuuu,NL,NL,1513578771,51.942154,4.405851,101751843,Rotterdam-Noord-West,101751843,110/880/573/9/1108805739.geojson,borough,85687041,cbsnl,,,NL
"4.5352237652784,51.9152418624205,4.54052258998007,51.92069277627219",uuuu,85633337,,b1dae66922c48321816928222446b5a7,,229c0aa0d2a8e05915fdf42e633f3f0b,51.917449,4.537314,1108805741,uuuu,NL,NL,1513579148,51.917346,4.537134,101751843,Rivium,101751843,110/880/574/1/1108805741.geojson,borough,85687041,cbsnl,,,NL
"4.41494277933292,51.9525345234153,4.44130882754276,51.96624943026914",uuuu,85633337,,f823a4a60b17c7075979d58ac4fc3089,,96cb6663c908180d419a57d678099c6b,51.959819,4.427586,1108805743,uuuu,NL,NL,1507246139,51.960000,4.427584,101751843,Bedrijventerrein Schieveen,101751843,110/880/574/3/1108805743.geojson,borough,85687041,cbsnl,,,NL
"4.18708045685368,51.89656478779325,4.26618340562763,51.94175030329686",uuuu,85633337,,b1aa4a8785aa8facf4ef3eabc9b400a1,,a3b92a75afc92bdc126a2dd8daeb172a,51.915566,4.231807,1108805745,uuuu,NL,NL,1507246139,51.909835,4.235097,101751843,Rozenburg,101751843,110/880/574/5/1108805745.geojson,borough,85687041,cbsnl,,101760475,NL
"4.46776136610892,51.87753728987309,4.52576864954127,51.91812360698789",uuuu,85633337,,72d3c0d6a46859cc84005607cffb1214,,c9dc4fb5959ecac4d377433a5096a719,51.898928,4.501476,1108805747,uuuu,NL,NL,1507246139,51.892205,4.505838,101751843,Feijenoord,101751843,110/880/574/7/1108805747.geojson,borough,85687041,cbsnl,,,NL
"4.40814736976601,51.92042209381563,4.43727492340618,51.9377518390697",uuuu,85633337,,b64a06018eb1a12c785a8d9a4723077a,,7a4e1f3c06f101b88952f2d033004ab6,51.928207,4.420348,1108805749,uuuu,NL,NL,1507246139,51.928025,4.420128,101751843,Spaanse Polder,101751843,110/880/574/9/1108805749.geojson,borough,85687041,cbsnl,,,NL
"4.41350628628685,51.89916865390797,4.46776136610892,51.92334871209678",uuuu,85633337,,6b35c851fbaeb55f8ded6aa74d221fe8,,2060ee0b5f67c3e698598433c4aa9062,51.912416,4.445531,1108805753,uuuu,NL,NL,1507246139,51.912956,4.447724,101751843,Delfshaven,101751843,110/880/575/3/1108805753.geojson,borough,85687041,cbsnl,,,NL
"4.40907532213181,51.90075462314198,4.44083803860538,51.91395266709485",uuuu,85633337,,1661e165c2263667d99e7541dc5d87a2,,680d1e72dc1b036abac39e3dd1a75e13,51.907653,4.424019,1108805755,uuuu,NL,NL,1507246139,51.907827,4.424021,101751843,Nieuw Mathenesse,101751843,110/880/575/5/1108805755.geojson,borough,85687041,cbsnl,,,NL
"4.1961998857559,52.03071162471947,4.26413452747938,52.0790026955591",uuuu,85633337,,cdc1e0a5a441572be56af6f0a8c86364,,61602c7a2e1ac783c39d6427789f0f88,52.055046,4.229469,1108808039,uuuu,NL,NL,1507246139,52.057297,4.229977,101752763,Loosduinen,101752763,110/880/803/9/1108808039.geojson,borough,85687041,mz,,,NL
"4.24299327820103,52.07875553719146,4.32883585634868,52.12832410073878",uuuu,85633337,,cec3d7cbb2a31c5f49ce6f4e5e2b2a62,,4b6c2095d3c789c63c8cb594a53b0b48,52.103133,4.288820,1108808041,uuuu,NL,NL,1507246140,52.102853,4.288180,101752763,Scheveningen,101752763,110/880/804/1/1108808041.geojson,borough,85687041,mz,,,NL
"4.22973759872946,52.06264402410633,4.29695953751506,52.09163341867423",uuuu,85633337,,f859127eba5cd3c02b7363aa8441b6d4,,28c8180d0d09994ce8dc4cc6478acc28,52.077100,4.262232,1108808043,uuuu,NL,NL,1507246140,52.077281,4.262749,101752763,Segbroek,101752763,110/880/804/3/1108808043.geojson,borough,85687041,mz,,,NL
"4.30625408549447,52.07499110580827,4.37351447093404,52.10928735056397",uuuu,85633337,,88ccd0625d919734e6a4702de99b62a9,,3cc9cb347ccf51fdd62246e6945e62bc,52.091946,4.338198,1108808045,uuuu,NL,NL,1507246140,52.086613,4.335408,101752763,Haagse Hout,101752763,110/880/804/5/1108808045.geojson,borough,85687041,mz,,,NL
"4.3400470778081,52.0265460425489,4.42248965486897,52.07784526105739",uuuu,85633337,,a8a7d6ed1dff63592e58f6d99b7e3a2f,,276718495341f2c58a706c40e1d03de9,52.053982,4.380603,1108808047,uuuu,NL,NL,1507246140,52.058563,4.377180,101752763,Leidschenveen-Ypenburg,101752763,110/880/804/7/1108808047.geojson,borough,85687041,mz,,,NL
"4.30810794824392,52.04857445930045,4.3555187027512,52.07528603811082",uuuu,85633337,,d6f378806c0f546c40a035ba61edad6f,,0df9795d02d24bf0ad41b3a14ecf6b8a,52.063213,4.328378,1108808049,uuuu,NL,NL,1513580251,52.066137,4.331958,101752763,Laak,101752763,110/880/804/9/1108808049.geojson,borough,85687041,mz,,,NL
"4.23505399629823,52.01484843296272,4.30981235130373,52.07064377777048",uuuu,85633337,,e407f9fae37056853e2e1b19e43741dc,,4662b3ca0174a6dfdf1bc0ddda414d08,52.044057,4.276603,1108808051,uuuu,NL,NL,1507246140,52.050496,4.277163,101752763,Escamp,101752763,110/880/805/1/1108808051.geojson,borough,85687041,mz,,,NL
"4.28404319276199,52.05640742397841,4.33383981282354,52.09863723697257",uuuu,85633337,,d6f428452b976714b23aaddc2f272422,,95a558413bca52c27813db60060e83cf,52.075577,4.305868,1108808053,uuuu,NL,NL,1507246140,52.076288,4.308327,101752763,Centrum,101752763,110/880/805/3/1108808053.geojson,borough,85687041,mz,,,NL
"5.09830245601157,52.07865698782762,5.12983463162912,52.09786280839566",uuuu,85633337,,387e51ba45499428036ad89384394795,,2d2d621483b21cbf1f084997b8b9099b,52.088587,5.116316,1108808659,uuuu,NL,NL,1507246140,52.088876,5.118702,101751827,Binnenstad,101751827,110/880/865/9/1108808659.geojson,borough,85687039,cbsnl,,,NL
"5.02727760483172,52.06103958295292,5.09724950150249,52.11693335475994",uuuu,85633337,,cfcd43df38cda2092050a9412ae2feb8,,08911476b5db5bf28a15679424c08709,52.089504,5.059947,1108808661,uuuu,NL,NL,1507246140,52.093330,5.057589,101751827,Leidsche Rijn,101751827,110/880/866/1/1108808661.geojson,borough,85687039,cbsnl,,,NL
"5.10982264166227,52.09501668591613,5.16191501128506,52.11524373198677",uuuu,85633337,,188c87c1d8cc00889dabad66c65906a7,,6956806a63114faf246cbe215294ba8f,52.103926,5.136302,1108808663,uuuu,NL,NL,1507246140,52.103967,5.136288,101751827,Noordoost,101751827,110/880/866/3/1108808663.geojson,borough,85687039,cbsnl,,,NL
"5.0612045415947,52.09356165142879,5.11521906806105,52.12718148769897",uuuu,85633337,,81442294ebcd1dfcdcd24138ed83cd6b,,f9b4e76e57822b6f19208279d9cd9601,52.109740,5.090973,1108808665,uuuu,NL,NL,1507246140,52.110287,5.090974,101751827,Noordwest,101751827,110/880/866/5/1108808665.geojson,borough,85687039,cbsnl,,,NL
"5.12237418750932,52.05668804356858,5.19515497057128,52.09840200971297",uuuu,85633337,,c5b9b2c22233b9c778193c8491b7bbcd,,9b5e07264a3b227a488c6473173a6a2e,52.082477,5.155810,1108808669,uuuu,NL,NL,1507246140,52.082872,5.147267,101751827,Oost,101751827,110/880/866/9/1108808669.geojson,borough,85687039,cbsnl,,,NL
"5.07236042908929,52.10641047856419,5.14938872986472,52.1356714565925",uuuu,85633337,,a0c8122b6af0f706c8a5c0e475ef9215,,576564a9aa5c4f34fb85e848cddbfa7f,52.120716,5.109255,1108808671,uuuu,NL,NL,1507246140,52.119801,5.109255,101751827,Overvecht,101751827,110/880/867/1/1108808671.geojson,borough,85687039,cbsnl,,85798227,NL
"4.97009598250492,52.02628198446323,5.0983052223926,52.1420505982328",uuuu,85633337,,4720b6e2e187506b61355b4af309c332,,31b8687ffe95f6206e0fffe6ed3188f5,52.086722,5.022795,1108808673,uuuu,NL,NL,1507246141,52.076432,5.028112,101751827,Vleuten-De Meern,101751827,110/880/867/3/1108808673.geojson,borough,85687039,cbsnl,,,NL
"5.03354503379099,52.07894786568254,5.1073710419187,52.12997241236106",uuuu,85633337,,b99a1afe8a773c2ede17c36e8a440ab3,,5a6014ebecd0dbf533362a2ed8f5ed32,52.105066,5.071618,1108808675,uuuu,NL,NL,1507246141,52.108341,5.069106,101751827,West,101751827,110/880/867/5/1108808675.geojson,borough,85687039,cbsnl,,,NL
"5.11070402414646,52.05252994377757,5.15280866518672,52.07865698782762",uuuu,85633337,,d5d76976a5ee72639167e9d9a5911a82,,a9f9872446305b6cba2e1c02a674782d,52.063541,5.130622,1108808677,uuuu,NL,NL,1507246141,52.064100,5.130300,101751827,Zuid,101751827,110/880/867/7/1108808677.geojson,borough,85687039,cbsnl,,,NL
"5.08133048970396,52.04993781153583,5.12237418750932,52.08522269547465",uuuu,85633337,,084b23be4f5b7949e5bce9e971eabde7,,30f5f8ab8b9cc846421166b5599b3431,52.071082,5.103242,1108808679,uuuu,NL,NL,1507246141,52.070899,5.103553,101751827,Zuidwest,101751827,110/880/867/9/1108808679.geojson,borough,85687039,cbsnl,,,NL
"-79.341317897,43.671063818,-79.115243191,43.855457183",uuuu,85633041,,c67d0214b5bff2d51438bd11f14995a6,,82136c42b6c9da4c715d2b179551212c,43.778031,-79.236917,1108833311,uuuu,CA,CA,1507246142,43.781265,-79.236905,101735835,Scarborough,101735835,110/883/331/1/1108833311.geojson,borough,85682057,mz,,420781843,CA
"-79.639264937,43.580995995,-79.469127595,43.763017918",uuuu,85633041,,269981aea7f9789e3becc3d45b304355,,ff3368dae51dc052cfb9310dcd22d87d,43.671947,-79.554829,1108833313,uuuu,CA,CA,1507246142,43.670610,-79.553568,101735835,Etobicoke,101735835,110/883/331/3/1108833313.geojson,borough,85682057,mz,,420781847,CA
"-79.585211732,43.692984928,-79.299161272,43.815650752",uuuu,85633041,,a2816360ee1789a349ea2e6f37dde83f,,e404a044337f03543162a777a70f29b2,43.751852,-79.430504,1108833315,uuuu,CA,CA,1507246142,43.744423,-79.463984,101735835,North York,101735835,110/883/331/5/1108833315.geojson,borough,85682057,mz,,420781845,CA
"-79.380081528,43.67850922,-79.287756505,43.721711532",uuuu,85633041,,f4379f13c3b2ca3e9e1569ad69e18ee2,,3fde30bb9d01065c2a54e26e4af9c982,43.700614,-79.337048,1108833317,uuuu,CA,CA,1507246142,43.699591,-79.351742,101735835,East York,101735835,110/883/331/7/1108833317.geojson,borough,85682057,mz,,85864663,CA
"-79.536020817,43.64743635,-79.418487069,43.710679185",uuuu,85633041,,438fe116437e00b8e0a39f1aef8afb01,,a3a69224c3153d2c9dfc52aab3d8f6d7,43.685825,-79.477559,1108833319,uuuu,CA,CA,1507246142,43.680189,-79.492232,101735835,York,101735835,110/883/331/9/1108833319.geojson,borough,85682057,mz,,420781849,CA
"-79.499233441,43.611954409,-79.280018037,43.736911907",uuuu,85633041,,2f1db20fd933688fe2106d9ffb01b45b,,c26f6af40f700868476a40a7f8bddcbb,43.665556,-79.392118,1108833321,uuuu,CA,CA,1507246142,43.662871,-79.393715,101735835,Old Toronto,101735835,110/883/332/1/1108833321.geojson,borough,85682057,mz,,85874335,CA
"-73.52706253363009,45.49231788384312,-73.42326463081082,45.58498714292178",uuuu,85633041,,cf41e1aa89c3f82dc88cae52786fa836,,9d468758e6b41625fc107663a5aa27ce,45.537558,-73.473900,1108961051,uuuu,CA,CA,1507246143,45.534279,-73.511036,101738793,Vieux Longueuil,101738793,110/896/105/1/1108961051.geojson,borough,136251273,mz,,85875721,CA
"-73.48834469704077,45.43263905600008,-73.33862707999992,45.55296965500008",uuuu,85633041,,4cc3f6cf3f9f4bedb3140daa122840af,,7218c2adcd024c6aee4fbf61d455b4d4,45.491028,-73.403251,1108961057,uuuu,CA,CA,1513810759,45.501148,-73.425362,101738793,Saint-Hubert,101738793,110/896/105/7/1108961057.geojson,borough,136251273,mz,,85864415,CA
"-73.9475518701442,45.44042490933068,-73.75168320769056,45.51710628186868",uuuu,85633041,,61f2f9c42f9f8941a03f43e1242cc450,,835e918b2ec87e1fbbf5583bf29113cd,45.480642,-73.863823,1108955729,uuuu,CA,CA,1513810753,45.510214,-73.823176,101736545,Pierrefonds-Roxboro,101736545,110/895/572/9/1108955729.geojson,borough,136251273,mz,,85784901,CA
"-73.65433365886676,45.57599393065418,-73.60166803923802,45.62986105597363",uuuu,85633041,,b5092d458904a3edd00c82a572d11ff7,,a24cc5f975644484a65a3f7032ee3276,45.602508,-73.629268,1108955731,uuuu,CA,CA,1513810748,45.607432,-73.625777,101736545,Montreal-Nord,101736545,110/895/573/1/1108955731.geojson,borough,136251273,mz,,85784809,CA
"-73.62069446688245,45.61258772896367,-73.47619754286481,45.70379826163911",uuuu,85633041,,17983397494ff68f733aab87658216a6,,6fd0d8ac9d8a0a3c8d7ae272950f602b,45.656970,-73.537745,1108955733,uuuu,CA,CA,1513810757,45.660490,-73.514738,101736545,Riviere-des-Prairiesâ€“Pointe-aux-Trembles,101736545,110/895/573/3/1108955733.geojson,borough,136251273,mz,,,CA
"-73.62963094951884,45.56638746118291,-73.56394405564325,45.61114829191001",uuuu,85633041,,80bcffa2cddfccd841d2fee8aef1cb16,,6e6dc7225bd1a5feb9ab3459ba40a0fb,45.589375,-73.595436,1108955735,uuuu,CA,CA,1513810760,45.586473,-73.599972,101736545,Saint-Leonard,101736545,110/895/573/5/1108955735.geojson,borough,136251273,mz,,85784921,CA
"-73.64853281913139,45.52334203033515,-73.58629910538768,45.58546358203435",uuuu,85633041,,4a4dfc201f1f0da019b3cbd1cff4aa44,,0bcfa5951099ae900a0740b658e576f1,45.555769,-73.620309,1108955737,uuuu,CA,CA,1513810772,45.550703,-73.612643,101736545,Villerayâ€“Saint-Michelâ€“Parc-Extension,101736545,110/895/573/7/1108955737.geojson,borough,136251273,mz,,420784401,CA
"-73.77417078880964,45.46066218255807,-73.65102614570748,45.53232612712217",uuuu,85633041,,eb2627ec934e3bd26c3ba2308434d758,,3c7ca3f0d9cabfafae1ddd2249c8cf08,45.498168,-73.712953,1108955739,uuuu,CA,CA,1513810760,45.500789,-73.709152,101736545,Saint-Laurent,101736545,110/895/573/9/1108955739.geojson,borough,136251273,mz,,"85895749,85784917",CA
"-73.72457319454647,45.42761230240255,-73.62907645100975,45.47333884731424",uuuu,85633041,,1716b5db15fcb8c3b05d8d1bfd17f4cf,,85985f19cc9f6bce87fdd3002e1c567e,45.448389,-73.688016,1108955741,uuuu,CA,CA,1513810740,45.440547,-73.685412,101736545,Lachine,101736545,110/895/574/1/1108955741.geojson,borough,136251273,mz,,85784771,CA
"-73.66598386206527,45.41459067767231,-73.56964744391452,45.4576998323344",uuuu,85633041,,3ce44bfda565bffde980ace34464690a,,1ee9a1544987f106be0ae366f8e4b050,45.431883,-73.623288,1108955743,uuuu,CA,CA,1513810740,45.430926,-73.633500,101736545,LaSalle,101736545,110/895/574/3/1108955743.geojson,borough,136251273,mz,,420784411,CA
"-73.59936693204546,45.43500043734097,-73.53189377886939,45.4750667206758",uuuu,85633041,,2e9f41e676d2fb6178d6f57c36d227e8,,ae4a8f49716922738b1d29978d7a63e0,45.456311,-73.565305,1108955749,uuuu,CA,CA,1513810771,45.456882,-73.568100,101736545,Verdun,101736545,110/895/574/9/1108955749.geojson,borough,136251273,mz,,85784961,CA
"-73.67762620956634,45.45077179131376,-73.59422964694929,45.51660792843808",uuuu,85633041,,56cac57c14bd2cf9dd330e934d736c93,,ca92010ce6bc455311ad89837aa044e6,45.484915,-73.631776,1108955757,uuuu,CA,CA,1513810725,45.499449,-73.627250,101736545,Cote-des-Neigesâ€“Notre-Dame-de-Grace,101736545,110/895/575/7/1108955757.geojson,borough,136251273,mz,,"85866499,85897529",CA
"-73.63530528470888,45.43748249757358,-73.5371620562926,45.49830176163808",uuuu,85633041,,4e22e458e22ba5f07e0f719c8af61c94,,fb94b9206dc644b8b0c07dc35d4982b5,45.469638,-73.581644,1108955759,uuuu,CA,CA,1513810742,45.477516,-73.576472,101736545,Le Sud-Ouest,101736545,110/895/575/9/1108955759.geojson,borough,136251273,mz,,85866497,CA
"-73.606837859999,45.48674365678237,-73.51797682657669,45.53989906837054",uuuu,85633041,,4ddc04d0c43c530b18af1e04f910bb18,,47db3e1872f95d1870d143da0223335e,45.509697,-73.560880,1108955761,uuuu,CA,CA,1513810772,45.504979,-73.566111,101736545,Ville-Marie,101736545,110/895/576/1/1108955761.geojson,borough,136251273,mz,,85866483,CA
"-73.5696786194674,45.53143516535842,-73.50393447761407,45.61588485799003",uuuu,85633041,,31e9706fcc2c3191b92ec001798dfbaf,,c603da154deafba30553eba976e2a819,45.578356,-73.534478,1108955765,uuuu,CA,CA,1507246143,45.585093,-73.537641,101736545,Mercierâ€“Hochelage-Maisonneuve,101736545,110/895/576/5/1108955765.geojson,borough,136251273,mz,,420784415,CA
"-73.61242171872289,45.50495511112256,-73.55922553663616,45.541598317394",uuuu,85633041,,ecef2be0ddee974d693a01362c753068,,c41c349e8b55fdceeb747cbc907d70f1,45.526096,-73.580754,1108955767,uuuu,CA,CA,1513810742,45.523889,-73.578776,101736545,Le Plateau-Mont-Royal,101736545,110/895/576/7/1108955767.geojson,borough,136251273,mz,,"85866479,85866475",CA
"-73.6215359445103,45.52564334185043,-73.54895902340228,45.58192611519962",uuuu,85633041,,c30c67253cd44b2fd7f74c429d17e563,,945795336d8b3137e8bc353405f67d2f,45.553359,-73.580409,1108955769,uuuu,CA,CA,1513810757,45.550963,-73.581529,101736545,Rosemontâ€“La Petite-Patrie,101736545,110/895/576/9/1108955769.geojson,borough,136251273,mz,,420784413,CA
"-113.44933020212294,53.57160422289839,-113.2715237619491,53.71591884864466",uuuu,85633041,,4d49bd7d6b44ff68c5d9eeab7b08c2a3,,4e6f70fb391dc5aae9d4b96f321ea45d,53.653664,-113.367711,1108971109,uuuu,CA,CA,1507246143,53.658666,-113.369388,890458485,Northeast Sector,890458485,110/897/110/9/1108971109.geojson,borough,85682091,mz,,,CA
"-113.56566593890982,53.59940801759133,-113.43624426450933,53.6505617317557",uuuu,85633041,,7ae30b8311e3acf866a1b469b40187cc,,f31bf2e35fbfd33cbe85caf7aec716e6,53.627661,-113.509043,1108971111,uuuu,CA,CA,1507246144,53.614831,-113.515961,890458485,North Sector,890458485,110/897/111/1/1108971111.geojson,borough,85682091,mz,,1108936277,CA
"-113.71388019276237,53.54114989959275,-113.55349802977356,53.63381128595122",uuuu,85633041,,163d99cd14c1578ae986884823823702,,ab7585eac1507b2107189208170621d8,53.578198,-113.634486,1108971115,uuuu,CA,CA,1507246144,53.570465,-113.640957,890458485,Northwest Sector,890458485,110/897/111/5/1108971115.geojson,borough,85682091,mz,,,CA
"-113.50893085051206,53.39565870293514,-113.29541767645631,53.61461476266734",uuuu,85633041,,8d3fe46b5158028e1e6ab687ae0abe25,,5ebefecd7e2845db0757a2710340510c,53.472512,-113.406261,1108971193,uuuu,CA,CA,1507246144,53.438261,-113.412335,890458485,Southeast Sector,890458485,110/897/119/3/1108971193.geojson,borough,85682091,mz,,1108936333,CA
"-113.65853182206587,53.39540489834022,-113.49248729445578,53.50168824698478",uuuu,85633041,,1758f54a3274865a20f2f979d10575b4,,67dbcbf18ad021c211547cb535b421cf,53.436734,-113.571310,1108971223,uuuu,CA,CA,1507246144,53.451893,-113.549206,890458485,Southwest Sector,890458485,110/897/122/3/1108971223.geojson,borough,85682091,mz,,1108936335,CA
"-113.7137069813738,53.40311795059615,-113.57804339378697,53.5413594306449",uuuu,85633041,,bfee71da9856d82d77dbb203a3f6735a,,2245f940ecf51ed5e74b31c004f5f35c,53.485502,-113.655537,1108971233,uuuu,CA,CA,1507246144,53.506377,-113.656323,890458485,West Sector,890458485,110/897/123/3/1108971233.geojson,borough,85682091,mz,,1108936337,CA
"-113.61542618177259,53.45563140114702,-113.3724048687513,53.61591375445604",uuuu,85633041,,16483b2132407b55ebafca10fd6279bb,,2171d4fb1753a2454755c4a688b7a835,53.544161,-113.502169,1108971557,uuuu,CA,CA,1507246144,53.549603,-113.510458,890458485,Mature Area Sector,890458485,110/897/155/7/1108971557.geojson,borough,85682091,mz,,,CA
"-58.41600048492447,-34.5997603196348,-58.37069568935016,-34.5693489037078",uuuu,85632505,,7ee11f688adb71aa88bd498a44f4fd3d,,7085b47dfa8269c23fcff68767cce8f6,-34.586238,-58.395219,1109371853,uuuu,AR,AR,1501630349,-34.590028,-58.395210,421174285,Comuna 2,421174285,110/937/185/3/1109371853.geojson,borough,85668081,arg-caba,,1108717817,AR
"-58.41465998088506,-34.63035586936054,-58.39116980152386,-34.59800307677477",uuuu,85632505,,4f4cc0c9731aeebf9832428e66659702,,851d10b12235ce377fbe420dbceb22a8,-34.613825,-58.402685,1109371855,uuuu,AR,AR,1501630350,-34.613987,-58.402462,421174285,Comuna 3,421174285,110/937/185/5/1109371855.geojson,borough,85668081,arg-caba,,1108717819,AR
"-58.43492309221771,-34.66250392959492,-58.33514300671247,-34.61763876364989",uuuu,85632505,,8d80e1196071675f858abf487dd47fed,,e2f1ae0b6145e58db62c33bd6b8763a5,-34.642288,-58.388846,1109371857,uuuu,AR,AR,1501630350,-34.647219,-58.396376,421174285,Comuna 4,421174285,110/937/185/7/1109371857.geojson,borough,85668081,arg-caba,,1108717823,AR
"-58.43333408976055,-34.64020037563068,-58.41048855352125,-34.59771280430175",uuuu,85632505,,1085a7fd29e3df8edc67083a4e6545f3,,c3af36d54e0845ffbb14e00f0ef2d894,-34.617352,-58.420606,1109371859,uuuu,AR,AR,1501630350,-34.617417,-58.420607,421174285,Comuna 5,421174285,110/937/185/9/1109371859.geojson,borough,85668081,arg-caba,,1108717825,AR
"-58.46270463231344,-34.6306390990819,-58.42675581422593,-34.60267345687988",uuuu,85632505,,27682941452c7d4022ff22eb7417abdf,,4b094ef752540b8b4c1c18c209edf87c,-34.616825,-58.443603,1109371861,uuuu,AR,AR,1501630351,-34.618044,-58.443262,421174285,Comuna 6,421174285,110/937/186/1/1109371861.geojson,borough,85668081,arg-caba,,1108717827,AR
"-58.47780723415686,-34.6568063613378,-58.42349188355463,-34.61388567196025",uuuu,85632505,,19544ce9dc18920ec006d9931e665f14,,2c54e0d123c9316e0c2bf285c9263dd7,-34.636537,-58.451922,1109371863,uuuu,AR,AR,1501630351,-34.640557,-58.454183,421174285,Comuna 7,421174285,110/937/186/3/1109371863.geojson,borough,85668081,arg-caba,,1108717829,AR
"-58.5025259133722,-34.70529313515961,-58.42403532611963,-34.65082307735838",uuuu,85632505,,5107c96da5986820c27aed53b1180e9f,,4f7c595b3bf5981fe442da9f8c6e8479,-34.674457,-58.462181,1109371865,uuuu,AR,AR,1501630351,-34.678082,-58.462188,421174285,Comuna 8,421174285,110/937/186/5/1109371865.geojson,borough,85668081,arg-caba,,1108717831,AR
"-58.5303590477146,-34.67450859235326,-58.46040177704846,-34.63279723233968",uuuu,85632505,,80a3de0bc2b4d59e2e51e5b21dc76718,,db63cae79633dc9609219eed7b36197b,-34.651720,-58.499097,1109371867,uuuu,AR,AR,1501630351,-34.658460,-58.504392,421174285,Comuna 9,421174285,110/937/186/7/1109371867.geojson,borough,85668081,arg-caba,,1108717833,AR
"-58.53151874059103,-34.64581817051569,-58.47130291491903,-34.60912576665559",uuuu,85632505,,8529b76dce34b991a2aee99c7fec5a01,,515386f09f85981e17f3335993813f16,-34.627819,-58.502871,1109371871,uuuu,AR,AR,1501630352,-34.627766,-58.497850,421174285,Comuna 10,421174285,110/937/187/1/1109371871.geojson,borough,85668081,arg-caba,,1108717835,AR
"-58.52946899678039,-34.62462986925642,-58.45847392545586,-34.58126812007536",uuuu,85632505,,5c387eef1672651c9a96ab621384e67f,,77dffd561753561f312686242ebe25d0,-34.606096,-58.496877,1109371873,uuuu,AR,AR,1501630352,-34.601900,-58.512079,421174285,Comuna 11,421174285,110/937/187/3/1109371873.geojson,borough,85668081,arg-caba,,1108717837,AR
"-58.51553628144664,-34.5939535746883,-58.46649017775157,-34.53863059211474",uuuu,85632505,,bfb5a9690333363a7a8b3ed3448de97e,,56741c9444d78f124bbe5596b73be39e,-34.566317,-58.490430,1109371875,uuuu,AR,AR,1501630352,-34.566341,-58.490059,421174285,Comuna 12,421174285,110/937/187/5/1109371875.geojson,borough,85668081,arg-caba,,1108717841,AR
"-58.47595309896914,-34.58317084092759,-58.42567401430581,-34.52754107410215",uuuu,85632505,,4d7e2a90ef9beb5bb626c5d07184c58e,,7b1b3a13405bf6f397eabf41252697b6,-34.554667,-58.454152,1109371877,uuuu,AR,AR,1501630352,-34.554225,-58.454536,421174285,Comuna 13,421174285,110/937/187/7/1109371877.geojson,borough,85668081,arg-caba,,1108717843,AR
"-58.4490443843996,-34.59785477186445,-58.39278991804774,-34.55093604118059",uuuu,85632505,,7957b94baab1c1041082de0a4efa7b72,,931a572e2a7281c87b245271c40ac010,-34.573902,-58.422435,1109371879,uuuu,AR,AR,1501630353,-34.573855,-58.421900,421174285,Comuna 14,421174285,110/937/187/9/1109371879.geojson,borough,85668081,arg-caba,,1108717845,AR
"-58.50354376659101,-34.6076156442747,-58.42336722223528,-34.57249617532658",uuuu,85632505,,a1b2a456dac139428c2d4614322d1119,,40007a3591d3ec2162eeb493b7906e41,-34.591865,-58.462809,1109371881,uuuu,AR,AR,1501630353,-34.591191,-58.460088,421174285,Comuna 15,421174285,110/937/188/1/1109371881.geojson,borough,85668081,arg-caba,,1108717847,AR
"-87.940114,41.908839,-87.620132,42.023039",uuuu,85633793,,c578c2666af7821facde49f144e3e1fb,,3d2799f84ac2daba5fa6034a292576a9,41.962284,-87.757468,958020405,uuuu,US,US,1507246146,41.936468,-87.673545,85940195,North Side,85940195,958/020/405/958020405.geojson,borough,85688697,mz,,85882313,US
"-58.39293082547753,-34.63412439138838,-58.3398445010592,-34.57748407059317",uuuu,85632505,,4e5dd75ef749bf61bdda4511e44ee637,,067fbeb745f941796b9c778db234fa0c,-34.606238,-58.371867,1109371849,uuuu,AR,AR,1501630349,-34.609446,-58.378746,421174285,Comuna 1,421174285,110/937/184/9/1109371849.geojson,borough,85668081,arg-caba,,1108717815,AR
"24.7828044415153,60.0275584484998,25.0294533596068,60.1927780055918",uuuu,85633143,,bc528cec39c478e715781311784cd853,,a48d62243066535ace891cbb11f194af,60.109766,24.908397,890536879,uuuu,FI,FI,1507246145,60.164120,24.932310,101748417,Etelainen,101748417,890/536/879/890536879.geojson,borough,85683067,hkigis,,,FI
"24.8480890648298,59.9224907197767,25.2195380555836,60.2193429539692",uuuu,85633143,,152bb8ce99bcae897e69693d0ef7bd4b,,5a3e7cb16bcdf2ef1903b40336befa2d,60.051526,25.053187,890536883,uuuu,FI,FI,1507246146,60.175590,25.045450,101748417,Kaakkoinen,101748417,890/536/883/890536883.geojson,borough,85683067,hkigis,,,FI
"24.97163269905869,60.19826682323463,25.08911332379175,60.2893181643518",uuuu,85633143,,de53629822bc16b48eec91b182c72d22,,8b346cb39c2a318030af5b6db23dd115,60.250260,25.021508,890536891,uuuu,FI,FI,1507246146,60.255794,25.010834,101748417,Koillinen,101748417,890/536/891/890536891.geojson,borough,85683067,hkigis,,,FI
"25.1389867239202,60.2269339680447,25.254496670834,60.2978394090452",uuuu,85633143,,57273bd4965c7f868eca54d9ff005679,,d9553c23577c681aed5a473dca97cb77,60.260428,25.197638,890536893,uuuu,FI,FI,1507246146,60.256441,25.198531,101748417,Ostersundom,-1,890/536/893/890536893.geojson,borough,85683067,hkigis,,,FI
"24.89791339322144,60.21732724140533,24.98992332800114,60.27851089304583",uuuu,85633143,,bb5efefc483249cc2a811dc53ff4ab35,,2e9be53f784be026a9ec1b3cf686ccfa,60.246547,24.941577,890536895,uuuu,FI,FI,1507246146,60.247946,24.940711,101748417,Pohjoinen,101748417,890/536/895/890536895.geojson,borough,85683067,hkigis,,,FI
"24.90753972337111,60.17499732179721,24.99797286936581,60.22399814009791",uuuu,85633143,,0534c9462fec5ecf10c7183a929e24d9,,d289746d9fe5e9e29ceec4344e0e9ff8,60.200673,24.954907,890536885,uuuu,FI,FI,1507246146,60.200105,24.955770,101748417,Keskinen,101748417,890/536/885/890536885.geojson,borough,85683067,hkigis,,,FI
"25.03517644576719,60.16460324406602,25.22040449066462,60.25082522590613",uuuu,85633143,,c05239d273fc3ef760beceae77d786be,,93d878cf667182b803f8181b1b2ac112,60.209233,25.125919,890536881,uuuu,FI,FI,1507246145,60.201193,25.135026,101748417,Itainen,101748417,890/536/881/890536881.geojson,borough,85683067,hkigis,,,FI
"24.8314029769117,60.1688706639467,24.9244095967069,60.2689375443751",uuuu,85633143,,6434ec8c8e592a33ab7143c8d4bcfcec,,11399a6f6688a78a0bb8b5c95b1a0b5c,60.217539,24.876156,890536889,uuuu,FI,FI,1507246146,60.209734,24.877005,101748417,Lantinen,101748417,890/536/889/890536889.geojson,borough,85683067,hkigis,,,FI
"-99.22111507087183,19.45643477583622,-99.14305467058581,19.5151359606202",uuuu,85633293,,5c0caeb9b6fe780fc076745cbf4c7040,,79f53bc3dff0131a49ff589ae96ae17c,19.485329,-99.182107,890535755,uuuu,MX,MX,1505343935,19.487767,-99.181362,101991149,Azcapotzalco,-1,890/535/755/890535755.geojson,borough,85686515,quattroshapes,,101991149,MX
"-99.03671450319688,19.18133685075213,-99.01250485373221,19.20639513361759",uuuu,85633293,,9bcd99c5280b16556c45e1369d53dba4,,0b0dc8f61ad27fd144d03656b96a9b8c,19.193229,-99.025425,890535759,uuuu,MX,MX,1501267448,19.193723,-99.025188,101991185,Villa Milpa Alta,101991185,890/535/759/890535759.geojson,borough,85686515,quattroshapes,,101991185,MX
"-99.20575217426982,19.29683683670942,-99.09907626351013,19.35956826252036",uuuu,85633293,,cd656a6c0940fdf737135c5551ecd702,,fc603bc4886b19ac9f87df16672d6b96,19.326667,-99.150376,890535773,uuuu,MX,MX,1505343935,19.327517,-99.154699,857683023,CoyoacÃ¡n,-1,890/535/773/890535773.geojson,borough,85686515,quattroshapes,,101991175,MX
"-99.27221699635149,19.26640351607714,-99.20665877960882,19.33788670411337",uuuu,85633293,,2b9cb9fd89f85e0f301f3c1e0189dd6e,,100d294d34608552428228aa71c0aa96,19.310631,-99.242593,890535777,uuuu,MX,MX,1505343935,19.311346,-99.242886,857683023,La Magdalena Contreras,-1,890/535/777/890535777.geojson,borough,85686515,quattroshapes,,101991155,MX
"-99.29884224659966,19.30236420222183,-99.17170610834036,19.40374302705542",uuuu,85633293,,3d023fd6622e4ce0722c3175adea7413,,8aab123e27c391668662b9c3ca56f772,19.354536,-99.227678,890535751,uuuu,MX,MX,1505343935,19.364502,-99.223359,857683023,Ãlvaro ObregÃ³n,-1,890/535/751/890535751.geojson,borough,85686515,quattroshapes,,101991115,MX
"-99.18430391561475,19.39978980439783,-99.12224120790016,19.46582436788238",uuuu,85633293,,57dbdecc65509d21d752e2cb77d247cd,,b3e882dd60c285104bdc8ccc3b4fe7d1,19.431373,-99.149056,890535757,uuuu,MX,MX,1505343935,19.427561,-99.167503,857683023,CuauhtÃ©moc,-1,890/535/757/890535757.geojson,borough,85686515,quattroshapes,,101991151,MX
"-99.1371823283571,19.37569951391498,-99.05578648867036,19.4222344441924",uuuu,85633293,,294b4f4ba05bf85d68a8fabd8c261428,,0c756371aab211d1455dd1b42caddf81,19.396912,-99.094330,890535761,uuuu,MX,MX,1505343935,19.394213,-99.103888,857683023,Iztacalco,-1,890/535/761/890535761.geojson,borough,85686515,quattroshapes,,101991173,MX
"-99.1921406099795,19.35691760404172,-99.1309424866112,19.40406328178319",uuuu,85633293,,a9eaf81ad9e622fd5ae8e90e1cfdbcff,,c004ac33bcc787d8f8e156ed9e1ce848,19.380642,-99.161135,890535769,uuuu,MX,MX,1479933575,19.380454,-99.161136,857683023,Benito JuÃ¡rez,-1,890/535/769/890535769.geojson,borough,85686515,quattroshapes,,101991153,MX
"-99.17704573484147,19.444790515935,-99.05086842056637,19.59275727996442",uuuu,85633293,,81eb18dd640cd4e3b51e98e0ad0e0726,,e59e8087f0af2535bfd1b30adfb288c6,19.504065,-99.115864,890535763,uuuu,MX,MX,1505343935,19.481139,-99.099276,101991167,Gustavo A. Madero,-1,890/535/763/890535763.geojson,borough,85686515,quattroshapes,,101991167,MX
"-99.3267770985852,19.31691434802446,-99.24673613921223,19.40484802815603",uuuu,85633293,,c1d6d64e5d36532928200d270eef7850,,78d1a52ae06ab40671618f57c3b97fa9,19.361244,-99.283203,890535767,uuuu,MX,MX,1505343935,19.362330,-99.282580,857683023,Cuajimalpa de Morelos,-1,890/535/767/890535767.geojson,borough,85686515,quattroshapes,,101991169,MX
"-99.13989383075894,19.28495584378134,-98.96044824331301,19.40073584919483",uuuu,85633293,,da154b39d74005c0fd59f8dc8ab8b8eb,,956ee20c90f9e2e9efc553374ad054f2,19.349163,-99.056799,890535765,uuuu,MX,MX,1505343935,19.346606,-99.055438,101991181,Iztapalapa,-1,890/535/765/890535765.geojson,borough,85686515,quattroshapes,,101991181,MX
"-99.15097605737765,19.18871015132942,-99.00704477214084,19.32044953740468",uuuu,85633293,,cb349e8c3373729b6443a5cf50e499d5,,4b1a35d0f4ba050ca15711704b735c50,19.251237,-99.095335,890535775,uuuu,MX,MX,1504309852,19.254115,-99.110634,101991121,Xochimilco,-1,890/535/775/890535775.geojson,borough,85686515,quattroshapes,,101991121,MX
"-99.12819972562532,19.40433067565096,-99.04645882385195,19.45978240075662",uuuu,85633293,,ead0667485b5f79231385f36f0306ec2,,46aa3c9ce53eeb9adaef64e2e45dd43f,19.430495,-99.093106,890535781,uuuu,MX,MX,1505343935,19.429190,-99.100505,101991179,Venustiano Carranza,-1,890/535/781/890535781.geojson,borough,85686515,quattroshapes,,101991179,MX
"-99.06896675054092,19.2373312965098,-98.98887987906187,19.31541473554757",uuuu,85633293,,0f70fd6d973aaaad1b93a01421b882d9,,c21ca38030329ceeb9ed335e62e62d86,19.284063,-99.025673,890535783,uuuu,MX,MX,1505343935,19.297259,-99.042946,857683023,TlÃ¡huac,-1,890/535/783/890535783.geojson,borough,85686515,quattroshapes,,101991165,MX
"-99.24607386943501,19.22046210778043,-99.10092916684796,19.31226363599072",uuuu,85633293,,39d2bfc6e382d0f0073d4e5ad655b2b5,,5f130a3d116a84fa17d23c62b21b61f3,19.274117,-99.179205,890535779,uuuu,MX,MX,1505343935,19.274583,-99.178087,101991157,Tlalpan,-1,890/535/779/890535779.geojson,borough,85686515,quattroshapes,,101991157,MX
"-99.2596602957539,19.38595701616003,-99.1637127737895,19.47335960641222",uuuu,85633293,,520ab64770f790967c90fa400307b59b,,e8b3f69ff7b4923bb9af8edb19f524e3,19.428062,-99.204567,890535785,uuuu,MX,MX,1505343935,19.428974,-99.199847,857683023,Miguel Hidalgo,-1,890/535/785/890535785.geojson,borough,85686515,quattroshapes,,101991171,MX
"-71.28514144668983,46.83096405268584,-71.14255822467874,46.96948744503171",uuuu,85633041,,439c7a0e09fccf5270dd2a1777352780,,f3ab3c88cbd2e0c3f7b6535bf0aeca60,46.904086,-71.212911,1126115113,uuuu,CA,CA,1513810717,46.858475,-71.187964,101737491,Beauport,101737491,112/611/511/3/1126115113.geojson,borough,136251273,mz,,85784675,CA
"-71.36400997773433,46.78936922335361,-71.23917267577725,46.89007212916527",uuuu,85633041,,0b5d746e3d4a5f52856d1160761c7668,,d480a0e2101c1d8d0a0388192e739c40,46.830649,-71.304767,1126115103,uuuu,CA,CA,1513810742,46.839583,-71.309755,101737491,Les Rivieres,101737491,112/611/510/3/1126115103.geojson,borough,136251273,mz,,85874711,CA
"-71.28760764659181,46.78624223381332,-71.19571294317454,46.85064603479545",uuuu,85633041,,080b2375955c14dda38758014d070790,,e6138cd2f7e0549eaa8052395ecb82ac,46.817625,-71.232566,1126115107,uuuu,CA,CA,1513810740,46.811148,-71.222311,101737491,La Cite-Limoilou,101737491,112/611/510/7/1126115107.geojson,borough,136251273,mz,,85874707,CA
"-71.23321431390845,46.71749255100008,-70.99443660599991,46.84258934500008",uuuu,85633041,,b13d01572efaff744dc8dfe27b7131d5,,f04d98bd802c411633233e2242f3f5cc,46.784040,-71.112914,1126128703,uuuu,CA,CA,1513810727,46.782543,-71.110637,101737987,Desjardins,101737987,112/612/870/3/1126128703.geojson,borough,136251273,mz,,,CA
"-71.28697890180496,46.60764385400006,-71.12429018599994,46.77242384007018",uuuu,85633041,,a63b8a2b0a57f33d52a2eca1d3c05525,,cca4d5753232aad9c488e083188d8c1e,46.700054,-71.203999,1126128705,uuuu,CA,CA,1513810724,46.696130,-71.189298,101737987,Chutes-de-la-Chaudiere-Est,101737987,112/612/870/5/1126128705.geojson,borough,136251273,mz,,,CA
"-71.52010941299994,46.57301455400005,-71.22909664926178,46.74667353400008",uuuu,85633041,,f8ed1987accf150e20d8f408e4f48c27,,aa6b1ccd4416f92b3bce526639ea1523,46.666996,-71.353079,1126128707,uuuu,CA,CA,1513810724,46.663618,-71.338779,101737987,Chutes-de-la-Chaudiere-Ouest,101737987,112/612/870/7/1126128707.geojson,borough,136251273,mz,,,CA
"-71.37398505847443,46.83470672369844,-71.2219276267599,46.95632044294264",uuuu,85633041,,3a5bfddf6af3045ff6cbb0eac533c835,,4b056635d88f791cd918a1df9680b201,46.898809,-71.294598,1126115111,uuuu,CA,CA,1513810723,46.868323,-71.270446,101737491,Charlesbourg,101737491,112/611/511/1/1126115111.geojson,borough,136251273,mz,,85785121,CA
"-71.49474545848072,46.73486411799096,-71.22555337468012,46.83082726436071",uuuu,85633041,,0c93bc3a11ed89a904f0dcd990131f10,,44b22fa144b00d93430c6859ec348661,46.781743,-71.366144,1126115101,uuuu,CA,CA,1513810761,46.778051,-71.302948,101737491,Sainte-Foy-Sillery-Cap-Rouge,101737491,112/611/510/1/1126115101.geojson,borough,136251273,mz,,420782125,CA
"-71.54907669346605,46.80328196226039,-71.31378809069078,46.98073854202506",uuuu,85633041,,a3a5b1d4689e3ef11a1f4f3fa9f0d6b1,,cafafdc178fa33b3e6226b823aa2d862,46.871797,-71.423759,1126115105,uuuu,CA,CA,1513810740,46.898483,-71.351277,101737491,La Haute-Saint-Charles,101737491,112/611/510/5/1126115105.geojson,borough,136251273,mz,,85864387,CA
