bbox,cessation,country_id,deprecated,file_hash,fullname,geom_hash,geom_latitude,geom_longitude,id,inception,iso,iso_country,lastmodified,lbl_latitude,lbl_longitude,locality_id,name,parent_id,path,placetype,region_id,source,superseded_by,supersedes,wof_country
"-0.0005,-0.000282,0.000379,0.000309",uuuu,1,,daefcd84a071f52a17a7e1acb4bb0bf0,,22d11fea01c64b218102f3fcb34655a9,0.000003,0.000010,1,uuuu,XN,XN,1496966656,0.000000,0.000000,0,Null Island,0,1/1.geojson,country,0,nullisland,,85681319,XN
"41.781005,42.024813,41.781005,42.024813",uuuu,421166797,2016-03-29,a3ada04b9d8c38a81e8169c4d31ceb43,,e8b768dacc1c34f7c02d4fddde3954b4,42.024813,41.781005,421166797,uuuu,GE,GE,1501880441,0.000000,0.000000,0,Georgia,102191569,421/166/797/421166797.geojson,country,0,quattroshapes,,,GE
"46.200828,5.16158,46.200828,5.16158",uuuu,421180189,2016-03-29,bd94ed5a6c39c1eaf4e78bcaa0e4a86e,,49cad63ec6007fc1a94cc7d047ad7d70,5.161580,46.200828,421180189,uuuu,SO,SO,1505340646,0.000000,0.000000,0,Somalia,102191573,421/180/189/421180189.geojson,country,0,quattroshapes,,,SO
"29.179687,16.888659,29.179687,16.888659",uuuu,421188081,2016-03-29,f34be9f6bd43c3aaae65ba140a800162,,0ad499453b3f4389ae3de9fd5fe15ee2,16.888659,29.179687,421188081,uuuu,SD,SD,1501880441,0.000000,0.000000,0,Sudan,102191573,421/188/081/421188081.geojson,country,0,quattroshapes,,,SD
"59.327545,47.999248,59.327545,47.999248",uuuu,421185849,2016-03-29,3444aaec973ba57865186b3ee3fc9201,,c4abd2c20149593d384b02d632e5386a,47.999248,59.327545,421185849,uuuu,KZ,KZ,1505340694,0.000000,0.000000,0,Kazakhstan,102191569,421/185/849/421185849.geojson,country,0,quattroshapes,,,KZ
"12.45979,43.942729,12.45979,43.942729",uuuu,421202109,2016-03-29,37e32201e89dd688c8c97992246d2937,,fe9d219080c30270cb0acc75d2c5033e,43.942729,12.459790,421202109,uuuu,SM,SM,1505340775,0.000000,0.000000,0,San Marino,102191581,421/202/109/421202109.geojson,country,0,quattroshapes,,,SM
"18.43398000000036,41.84634496506129,23.00583549999979,46.19004849999985",2006,1108955783,,76b25458f9bd9fbc3b25d71352c388cb,,765b66d6fdf2f25e2fb0324c172fb8ff,43.865131,20.597564,1108955783,1992-03~,XX,XX,1498687034,43.550779,20.943350,0,Federal Republic of Yugoslavia,102191581,110/895/578/3/1108955783.geojson,country,0,mz,"85633755,85632667",1108955785,XX
"15.716074,41.84634496506129,23.00583549999979,46.19004849999985",1992-03~,1108955785,,1db52e1cda5ca1e53ac13ae6f2e6f7fc,,b561e77386bcee2218915ca1d6ebd38e,43.967236,19.643872,1108955785,1991-09~,XX,XX,1498673323,43.971458,20.197023,0,Socialist Federal Republic of Yugoslavia,102191581,110/895/578/5/1108955785.geojson,country,0,mz,"1108955783,85632609",1108955787,XX
"15.716074,40.85334400000011,23.034093,46.19004849999985",1991-09~,1108955787,,a6e6afac4ef634956a8e51acae2a48b2,,5747e03a0f52fdabb071d171a4c7675c,43.642977,19.925660,1108955787,1991-06~,XX,XX,1498673326,43.981902,20.175488,0,Socialist Federal Republic of Yugoslavia,102191581,110/895/578/7/1108955787.geojson,country,0,mz,"1108955785,85632373",1126113567,XX
"13.37585399999978,40.85334400000011,23.034093,46.87657149999984",1945-11-29,1108955789,,b4cf8818971601c006bcab8e291b93f7,,b1d9aa15487ef02e179e796e8fae7dec,44.158904,18.732796,1108955789,1918-12~,XX,XX,1498673329,44.098986,18.839966,0,Kingdom of Yugoslavia,102191581,110/895/578/9/1108955789.geojson,country,0,mz,1126113567,,XX
"50.31004715999995,25.54705619800006,50.82552719100005,26.34538841200003",uuuu,85632167,,cdb9d77847e98faf718d10540e745e11,,92d67ac8860a1c95943c286e90d214e1,26.025432,50.561127,85632167,uuuu,BH,BH,1509142650,26.020458,50.551925,0,Bahrain,102191569,856/321/67/85632167.geojson,country,0,quattroshapes,,,BH
"88.746474,26.702016,92.12512680000003,28.246987",uuuu,85632171,,d730f73d6e19053967733178089ef46d,,3cb0f915b9586ac1946bddc08fcd7927,27.395689,90.432033,85632171,uuuu,BT,BT,1509142655,27.454772,89.925610,0,Bhutan,102191569,856/321/71/85632171.geojson,country,0,quattroshapes,,,BT
"27.011189,-30.677733,29.456192,-28.57060685699997",uuuu,85632173,,e593fcda70c70afc74f1e822e348b516,,e484e6b762c5cbca76d0986dc51eb745,-29.583318,28.246545,85632173,uuuu,LS,LS,1509142794,-29.516751,28.163744,0,Lesotho,102191573,856/321/73/85632173.geojson,country,0,quattroshapes,,,LS
"-83.052241,7.20475006100008,-77.158488,9.64836120600006",uuuu,85632179,,4b588a7728ad965eb4e74872cf7efb43,,eeb92144a52538bcc7d5a346c5196589,8.512102,-80.112460,85632179,uuuu,PA,PA,1509142979,8.724910,-80.338454,0,Panama,102191575,856/321/79/85632179.geojson,country,0,quattroshapes,,,PA
"52,16.65008377100003,59.83791732800006,26.50547218300005",uuuu,85632207,,477a9d3e7d29a49a832c4180584aef0a,,62a73ae96ba6a56134495bcbe1d3eb76,20.597493,56.105752,85632207,uuuu,OM,OM,1509142978,22.113184,57.345652,0,Oman,102191569,856/322/07/85632207.geojson,country,0,quattroshapes,,,OM
"92.17180802700051,9.59288883200003,101.17027200000047,28.54783500000042",uuuu,85632181,,7b5e5752af4f9f59f3417804845a1b5c,,c7dc696e68bdc6f103a5a2978d670761,21.113608,96.505640,85632181,uuuu,MM,MM,1509142807,21.576814,96.065960,0,Myanmar,102191569,856/321/81/85632181.geojson,country,0,quattroshapes,,,MM
"-63.13794411999993,18.00699996900005,-63.01358031207337,18.06417065900007",uuuu,85632185,,9256439d51870b8ff006dab8a71ffa5d,,e84873b787cf6c121a0614f824acb306,18.039175,-63.063334,85632185,uuuu,SX,SX,1509143021,18.042123,-63.058205,0,Sint Maarten,102191575,856/321/85/85632185.geojson,country,0,quattroshapes,,,SX
"12.445909,41.900276,12.458336,41.907417",uuuu,85632187,,dfe4f4c3db40e07ffad0209b671fa590,,f1edda57c5327561cd5c17a698c9fb3a,41.903395,12.452965,85632187,uuuu,VA,VA,1509142738,41.903542,12.453083,0,Vatican,102191581,856/321/87/85632187.geojson,country,0,quattroshapes,,,VA
"-5.521112,9.393889,2.404293,15.085111",uuuu,85632213,,5be693ec21f5db2f94de5fe535d0c047,,ba5def83282ddf05f89b1aaa2962103e,12.276301,-1.743370,85632213,uuuu,BF,BF,1509142666,12.655182,-1.473625,0,Burkina Faso,102191573,856/322/13/85632213.geojson,country,0,quattroshapes,,,BF
"-78.374664,17.703192,-76.187978,18.525092",uuuu,85632215,,0c6a43c7ac36158df85a9c13acfebbb7,,1983f946c32ff1cecac89a146e71b596,18.155226,-77.318810,85632215,uuuu,JM,JM,1509142775,18.137123,-77.318767,0,Jamaica,102191575,856/322/15/85632215.geojson,country,0,naturalearth,,,JM
"-17.1088886259999,20.77006617297997,-8.66666521399992,27.66876720000022",uuuu,85632217,,68942cd6c5f886a127835ada73b90b0c,,5a142a4b86dd558940b6fbcee35bb1f4,24.227886,-12.213592,85632217,uuuu,EH,EH,1509143055,23.966331,-12.630321,0,Western Sahara,102191573,856/322/17/85632217.geojson,country,0,quattroshapes,,,EH
"-3.26067599999988,4.73541688900013,1.19947914281181,11.16666700000042",uuuu,85632189,,76b85c47ccd793b9b5dbeb1eaac3df65,,d5c2ab36297aad1ea09a8f32a7561167,7.965218,-1.205938,85632189,uuuu,GH,GH,1509142732,7.851250,-0.982714,0,Ghana,102191573,856/321/89/85632189.geojson,country,0,quattroshapes,,,GH
"43.222911,-25.598565,50.503917,-11.943617",uuuu,85632223,,e6547dace16d9023cfdfc6aa9dbcf336,,470619052ef04337e53e54d0dfe193d8,-19.373168,46.705998,85632223,uuuu,MG,MG,1509142796,-18.628414,46.704055,0,Madagascar,102191573,856/322/23/85632223.geojson,country,0,naturalearth,,,MG
"38.79367400000012,29.06120800000014,48.61173652071295,37.06394920268241",uuuu,85632191,,8c17d6b1c3a98cdb5469922bd20775fd,,58b8426035e8f4916580cfb2c8286871,32.740700,43.689477,85632191,uuuu,IQ,IQ,1509142773,32.765286,43.614805,0,Iraq,102191569,856/321/91/85632191.geojson,country,0,quattroshapes,,,IQ
"29.34,-11.76125399999989,40.44544601400003,-0.98440649999986",uuuu,85632227,,b6d3225e39d53a93991f44792f85ce67,,82aed73079cbc3e49e5f1cfbae5c2aa4,-6.263311,34.820400,85632227,uuuu,TZ,TZ,1509143042,-5.869032,34.800732,0,Tanzania,102191573,856/322/27/85632227.geojson,country,0,quattroshapes,,,TZ
"28.861754,-2.83984,30.899118,-1.047572",uuuu,85632303,,e13dbe1d3497ff07d0d27f4b97197dae,,7e0112deafa7015114b3beb7937ec5be,-2.000401,29.925336,85632303,uuuu,RW,RW,1509143018,-1.898150,30.095066,0,Rwanda,102191573,856/323/03/85632303.geojson,country,0,quattroshapes,,,RW
"72.64375305200008,-0.70294445799993,73.74541473400006,7.10874986600004",uuuu,85632305,,8b631cb38ab24c48935c8f9bb67209e9,,05627a6e083fd4dcfe1d9955447af0c7,3.689640,73.199364,85632305,uuuu,MV,MV,1509142800,-0.614771,73.093739,0,Maldives,102193527,856/323/05/85632305.geojson,country,0,quattroshapes,,,MV
"60.475769,29.377217,74.889862,38.490733",uuuu,85632229,,5188cef4d56aee749d43d67252fe8595,,244b9bb074a87808dcfb8832564bfae5,33.831599,66.026521,85632229,uuuu,AF,AF,1509142562,34.159326,66.515510,0,Afghanistan,102191569,856/322/29/85632229.geojson,country,0,quattroshapes,,,AF
"125.07458496100003,33.11286163300008,130.95039367700008,38.61841203000012",uuuu,85632231,,4914e0a49adf6ed61d04377155f33c3f,,98193ff2cd4f1699baaa0265b635485b,36.356622,127.806138,85632231,uuuu,KR,KR,1509142990,36.382192,128.123986,0,South Korea,102191569,856/322/31/85632231.geojson,country,0,quattroshapes,,,KR
"-54.475744,2.10928700000022,-51.62335967999996,5.74976548913691",uuuu,85632233,2017-06-19,7a7083208791da1105677c2f383fee95,,af21f548f15a044341add74ea4c4fd80,3.966670,-53.200297,85632233,uuuu,GF,GF,1509142726,4.054185,-53.061337,0,French Guiana,-1,856/322/33/85632233.geojson,country,0,quattroshapes,85671195,,FR
"46.49367200000012,40.5685840000001,87.31539950000018,55.44198400000022",uuuu,85632307,,04275dd431493b10c7fcdbbd15cb11eb,,742367ffb643dbf3ba4600e71003837f,48.164713,67.270657,85632307,uuuu,KZ,KZ,1509142786,48.401963,69.258345,0,Kazakhstan,102191569,856/323/07/85632307.geojson,country,0,quattroshapes,,,KZ
"79.52162184000002,5.91455555000005,81.88038635300006,9.83208370200003",uuuu,85632313,,ec249cfb364a686ccc11a6deb0c1bae5,,d25ce63c462e291332a96cf44525a5d5,7.620404,80.700410,85632313,uuuu,LK,LK,1509143025,7.622919,80.688220,0,Sri Lanka,102191569,856/323/13/85632313.geojson,country,0,quattroshapes,,,LK
"34.26725779999998,29.48116349200018,35.66992250000015,33.290743",uuuu,85632315,,be61f4276a53198e38336c4d5f1bb7b7,,d4721dbdf5bd2be7e5b89a13aa522d27,31.356156,34.966592,85632315,uuuu,IL,IL,1509142774,30.902941,34.860794,0,Israel,102191569,856/323/15/85632315.geojson,country,0,quattroshapes,,,IL
"19.998903,-26.907545,29.375304,-17.778158",uuuu,85632235,,73f4f8b33d01471ec8c1dc03fcbd4856,,25c0d25e5cfa0975bcdcea2b2adc3d20,-22.187383,23.814767,85632235,uuuu,BW,BW,1509142656,-22.108313,24.191388,0,Botswana,102191573,856/322/35/85632235.geojson,country,0,quattroshapes,,,BW
"100.083872,13.90972,107.69483,22.502872",uuuu,85632241,,257535841f0c34ae556d21fbffbe07c4,,0bbf01dd3aaf458f2f1e5a79a36377c5,18.495567,103.770039,85632241,uuuu,LA,LA,1509142792,19.435350,102.560667,0,Laos,102191569,856/322/41/85632241.geojson,country,0,quattroshapes,,,LA
"-73.35155799999973,0.64752900000025,-59.80566599999986,12.49905586200003",uuuu,85632317,,e7528d40aeb98c6af4d9d299911b6d2d,,3d7079b99cd61c14b3271ce5d51726d2,7.133888,-66.150128,85632317,uuuu,VE,VE,1509143050,7.186460,-64.568705,0,Venezuela,102191577,856/323/17/85632317.geojson,country,0,quattroshapes,,,VE
"41.75972200000029,10.93194400000016,43.44452667200005,12.71369725567922",uuuu,85632319,,58196dd093f1fb6c0415267f4ddc6a1d,,27caa411176bc6b1326586e503015be9,11.743267,42.580357,85632319,uuuu,DJ,DJ,1509142718,11.927315,42.454406,0,Djibouti,102191573,856/323/19/85632319.geojson,country,0,quattroshapes,,,DJ
"25.237368,-22.421999,33.06816385700006,-15.609319",uuuu,85632243,,fbbc17f8ed0f4cbca207cf9ff4dd1ee5,,d3e4283630e434b2255a54526f6b9b15,-19.000000,29.872164,85632243,uuuu,ZW,ZW,1509143056,-18.919508,29.946601,0,Zimbabwe,102191573,856/322/43/85632243.geojson,country,0,quattroshapes,,,ZW
"8.505056,1.654551,16.207723,13.081141",uuuu,85632245,,4aeb9e7a241067a340fcc8c0fc5f0641,,8a36849463fec18a50092616be502e94,5.693058,12.736984,85632245,uuuu,CM,CM,1509142668,4.585076,12.473672,0,Cameroon,102191573,856/322/45/85632245.geojson,country,0,naturalearth,,,CM
"-89.355961,12.984225,-82.38913726799996,17.41872215300003",uuuu,85632323,,f40aeacd785a1a7b0a46701c9758a7fe,,6f3a6bdf7e9dd1e809fd4e3bd4e0382d,14.822340,-86.615837,85632323,uuuu,HN,HN,1509142738,14.762778,-86.920196,0,Honduras,102191575,856/323/23/85632323.geojson,country,0,quattroshapes,,,HN
"0.776667,6.23006142600002,3.843343,12.40855233300005",uuuu,85632247,,b6932d04c07744a506a4755cad35d611,,86999cddb0e98f96969ea60e95680215,9.652995,2.338755,85632247,uuuu,BJ,BJ,1509142655,10.330607,2.362221,0,Benin,102191573,856/322/47/85632247.geojson,country,0,quattroshapes,,,BJ
"13.47,7.442975,24.000001,23.449228",uuuu,85632325,,fba62d2b7cf2ca5ca03db7410e10f6a2,,8e66a136ee1e863482167078eaf78efc,15.375822,18.667944,85632325,uuuu,TD,TD,1509142673,15.210020,18.769240,0,Chad,102191573,856/323/25/85632325.geojson,country,0,quattroshapes,,,TD
"-11.49926562460797,4.35280561400015,-7.369255,8.55198600000017",uuuu,85632249,,8bbb3a4ddc8b9cbd341fa93551a862d1,,75f39e1cb9f81496286e8f3a19e32085,6.447572,-9.309791,85632249,uuuu,LR,LR,1509142795,6.445025,-9.449891,0,Liberia,102191573,856/322/49/85632249.geojson,country,0,quattroshapes,,,LR
"33.90982900000017,-4.68005580899995,41.90683820000015,4.6310390000001",uuuu,85632329,,eff3c6863e02c0cc996e96a239d191f2,,36b083c7df306f45ed7dd9ce934d65dc,0.533965,37.860792,85632329,uuuu,KE,KE,1509142789,0.543716,37.918308,0,Kenya,102191573,856/323/29/85632329.geojson,country,0,quattroshapes,,,KE
"34.572765,16.370945,55.637565,32.121348",uuuu,85632253,,9aceb4d5a0e7a486339c10a699032679,,2c4a3dcb03cac99c2ff7c398860d898d,24.122327,44.536864,85632253,uuuu,SA,SA,1509143019,23.806678,44.700847,0,Saudi Arabia,102191569,856/322/53/85632253.geojson,country,0,naturalearth,,,SA
"131.17208862300004,2.91038894700006,134.72708129900002,8.09205532100003",uuuu,85632331,,191e6b4cbc3b2191266e3e3ab2ec9b65,,0c9199f2f574cd9bd9f7595781479ec6,7.396121,134.499529,85632331,uuuu,PW,PW,1509142979,7.497679,134.581978,0,Palau,102191583,856/323/31/85632331.geojson,country,0,quattroshapes,,,PW
"-61.80588912999997,11.98299980200005,-61.37883377099996,12.53786087000003",uuuu,85632335,,a601224c9f9fb2e7ee534af21a9aecad,,603563f5227cdc70463156458d3d7f25,12.155005,-61.659759,85632335,uuuu,GD,GD,1509142733,12.113960,-61.688501,0,Grenada,102191575,856/323/35/85632335.geojson,country,0,quattroshapes,,,GD
"32.997734,3.404137,48.001056,14.894214",uuuu,85632257,,777a2d29c33533fc05b0ef59a5875c72,,cabf20dbc731efa184b304ec680b285f,8.633117,39.632616,85632257,uuuu,ET,ET,1509142723,7.996115,38.896778,0,Ethiopia,102191573,856/322/57/85632257.geojson,country,0,quattroshapes,,,ET
"43.213227,-12.380304,44.529063,-11.361261",uuuu,85632259,,4faa5395e745c7674614914f190135bd,,955aa98ce7889364f83699eeba822432,-11.884217,43.680164,85632259,uuuu,KM,KM,1509142706,-11.727683,43.318094,0,Comoros,102191573,856/322/59/85632259.geojson,country,0,naturalearth,,,KM
"-80.48630523699995,20.91205596900005,-72.71291351299993,27.27461051900008",uuuu,85632339,,9d37c0d269962394d3512688dabd073a,,41c763c25f273789fdca18f2b9aa509b,24.262399,-76.631515,85632339,uuuu,BS,BS,1509142648,24.669637,-78.018505,0,The Bahamas,102191575,856/323/39/85632339.geojson,country,0,quattroshapes,,,BS
"-92.01155853299997,-5.01397502099991,-75.18879394499999,1.66583335400003",uuuu,85632261,,1cd41d41efd90132473e412ebb536b4f,,e12898070ef1a025a4953af33cc6b60a,-1.426932,-78.775014,85632261,uuuu,EC,EC,1509142719,-1.241567,-78.322784,0,Ecuador,102191577,856/322/61/85632261.geojson,country,0,quattroshapes,,,EC
"1.41376,42.428743,1.786576,42.655765",uuuu,85632343,,4bd1d0b732b611d1f07089f892569661,,e96ae0447aefca2dd577d564fa0ea3fa,42.545472,1.576280,85632343,uuuu,AD,AD,1509142566,42.547076,1.576286,0,Andorra,102191581,856/323/43/85632343.geojson,country,0,quattroshapes,,,AD
"140.849211,-11.636326,155.96754,-1.346368",uuuu,85632347,,5c2697978188dff402228d305080f670,,72557d1aefbf670339035a9e68885282,-6.470121,145.231524,85632347,uuuu,PG,PG,1509142980,-5.695438,143.910495,0,Papua New Guinea,102191583,856/323/47/85632347.geojson,country,0,naturalearth,,,PG
"55.219,-21.372,55.845,-20.857",uuuu,85632351,2017-06-19,cebb3d751aed930988416797dd0aa54b,,33f0a5223e1f08e730bbff8e380431c6,-21.114500,55.532000,85632351,uuuu,RE,RE,1509142992,-21.114500,55.532000,0,Reunion,102193527,856/323/51/85632351.geojson,country,0,naturalearth,85671199,,FR
"166.52207946800002,-20.25124931299996,170.21374511700003,-13.07124996199997",uuuu,85632263,,87f34b5f3e9d8e81e725550a0f162d72,,439d747042417cbbd3b26dbe8bb33ca2,-16.204628,167.703777,85632263,uuuu,VU,VU,1509143049,-15.388977,166.885687,0,Vanuatu,102191583,856/322/63/85632263.geojson,country,0,quattroshapes,,,VU
"-62.638051,-27.588334,-54.258562,-19.287659",uuuu,85632355,,eb6c0768883e02afd8f9610a39102405,,a38e9993364eee48993ecc6e3d87f157,-23.234570,-58.395033,85632355,uuuu,PY,PY,1509142980,-21.686079,-60.139940,0,Paraguay,102191577,856/323/55/85632355.geojson,country,0,quattroshapes,,,PY
"56.57202911400003,-20.52872276299996,63.50208282500006,-10.32633304599995",uuuu,85632357,,a9984293e59fa3f41e2c375c80fd2759,,bd6451c0e2d66c7876c30815238ffbb3,-20.119972,57.882687,85632357,uuuu,MU,MU,1509142802,-20.321973,57.534935,0,Mauritius,102193527,856/323/57/85632357.geojson,country,0,quattroshapes,,,MU
"0.166667,11.693756,15.999034,23.49999996400004",uuuu,85632269,,4a816f3f6c2b85910a3a5e3cd2ddaa27,,3dd1cbc20486acef2a1020af5ad21b19,17.410127,9.402888,85632269,uuuu,NE,NE,1509142975,17.431408,9.521564,0,Niger,102191573,856/322/69/85632269.geojson,country,0,quattroshapes,,,NE
"102.333542,9.90705585500007,107.627687,14.690179",uuuu,85632359,,cbc93365839c94452d5a3e3ea4ea6dc7,,03dfcaed439dfb307eaaec21aa523a59,12.710386,104.916899,85632359,uuuu,KH,KH,1509142668,12.635759,104.480812,0,Cambodia,102191569,856/323/59/85632359.geojson,country,0,quattroshapes,,,KH
"-61.93372344999995,10.04113864900006,-60.49460983299997,11.36347198500005",uuuu,85632271,,ab5f0e20acec0bcf23f767199613786e,,52fe83af69394074f090fc102241b69e,10.472075,-61.261992,85632271,uuuu,TT,TT,1509143038,10.435364,-61.264793,0,Trinidad and Tobago,102191575,856/322/71/85632271.geojson,country,0,quattroshapes,,,TT
"11.67455577900006,-18.0391039999999,24.084445,-4.387944",uuuu,85632281,,2fbca60dfe5293fd4400bbb12db3fcd9,,131811b209c5cc227f5eaa2ee643fd9b,-12.298995,17.547888,85632281,uuuu,AO,AO,1509142566,-12.180859,17.996347,0,Angola,102191573,856/322/81/85632281.geojson,country,0,quattroshapes,,,AO
"116.70202636700003,20.70538902300007,122.10294342000009,26.39624977100004",uuuu,85632403,,6338bffc5e1059c024d2144c171e9608,,dedbee5679b3e3ef3104c07ee807e6e2,23.754764,120.952016,85632403,uuuu,TW,TW,1507751401,23.798532,120.955426,0,Taiwan,102191569,856/324/03/85632403.geojson,country,0,quattroshapes,,,TW
"29.00099300000016,-4.46918049999994,30.85017300000015,-2.30998699999987",uuuu,85632285,,fc99fd0a017c63599a51c1b0b36664f1,,4bd9bbaa99d1ac96fecd027901d1de7e,-3.365469,29.891759,85632285,uuuu,BI,BI,1509142667,-3.397104,29.877803,0,Burundi,102191573,856/322/85/85632285.geojson,country,0,quattroshapes,,,BI
"5.60211134000002,-1.46127772299997,11.3333,3.78705549200004",uuuu,85632287,,6fcd49d2b757c78399ec51b437d57d61,,29148fb7d6d97ababd29490f3361b138,1.704284,10.332114,85632287,uuuu,GQ,GQ,1509142721,1.586111,10.464682,0,Equatorial Guinea,102191573,856/322/87/85632287.geojson,country,0,quattroshapes,,,GQ
"19.26286125200005,39.64448199600025,21.05728200000027,42.66108200000019",uuuu,85632405,,8fd5fd108fa9433f58448e207abff990,,063b4ef6e498913db2f1a1a6f43976d0,41.139130,20.066431,85632405,uuuu,AL,AL,1509142564,40.647186,20.127352,0,Albania,102191581,856/324/05/85632405.geojson,country,0,quattroshapes,,,AL
"44.0318910000002,25.0603885650001,63.33320050000015,39.78167600000012",uuuu,85632361,,f33e9c5b0d7a95a75f82b870f7899b5c,,fa2fc172e30ab1379d4269cb8b011bb2,32.561186,54.303325,85632361,uuuu,IR,IR,1509142767,31.931398,55.245317,0,Iran,102191569,856/323/61/85632361.geojson,country,0,quattroshapes,,,IR
"-17.546278,12.30728900000031,-11.348607,16.693054",uuuu,85632365,,12b3e266d00cead670a53d2ab6799a00,,428b5c836688cb5d92efd206ce790762,14.362420,-14.467137,85632365,uuuu,SN,SN,1509143019,15.138550,-14.768082,0,Senegal,102191573,856/323/65/85632365.geojson,country,0,quattroshapes,,,SN
"-61.08127593999995,13.70475006100003,-60.87330627399996,14.10841655700006",uuuu,85632369,,c5e690f0024c1cd5a61768b971e75323,,277b00d2f1c89f5ea9ed1fe508054862,13.896369,-60.967792,85632369,uuuu,LC,LC,1509143018,13.896235,-60.974929,0,Saint Lucia,102191575,856/323/69/85632369.geojson,country,0,quattroshapes,,,LC
"-56.40861129799998,46.74841690100004,-56.08235931399997,47.14250183100006",uuuu,85632371,,32da6b0d4cfb95165ede2586c3f1958c,,67293514b025532fba7610d0fed1db06,46.932242,-56.310215,85632371,uuuu,PM,PM,1509143018,47.042405,-56.349430,0,Saint Pierre and Miquelon,136253037,856/323/71/85632371.geojson,country,0,quattroshapes,,,PM
"8.69788932800014,-3.96000897396942,14.52689340000006,2.31810900000011",uuuu,85632407,,94459ea195db44833066cde20a597534,,2a9c5a190d1fbcf5b42e112e18924529,-0.605461,11.788417,85632407,uuuu,GA,GA,1509142728,-0.586328,11.547829,0,Gabon,102191573,856/324/07/85632407.geojson,country,0,quattroshapes,,,GA
"20.452423,40.85334400000011,23.034093,42.3736305",uuuu,85632373,,ae748a6fbc92163fd3bd9010b0c8cdbf,,01fb9cb575cf6ebb4e74cc9b5906e8ed,41.600288,21.700726,85632373,1991-09~/1992-03~,MK,MK,1509143036,41.569245,21.547313,0,Macedonia,102191581,856/323/73/85632373.geojson,country,0,quattroshapes,,1108955787,MK
"35.71358490000011,32.311136,42.37630900000022,37.32056900000015",uuuu,85632413,,2bbc98210a33aa9556140aaef69bdbc8,,63c4acae2f1702a243e3738a94227d31,35.031835,38.517544,85632413,uuuu,SY,SY,1509143031,35.008917,38.290599,0,Syria,102191569,856/324/13/85632413.geojson,country,0,quattroshapes,,,SY
"40.965385,-1.696283,51.417038,11.989119",uuuu,85632379,,f270a40bf0af64279a4aa90fcbb5f581,,bc623be1fcd00452b4f852955eaa271a,4.748837,45.706144,85632379,uuuu,SO,SO,1509143023,3.568925,45.192380,0,Somalia,102191573,856/323/79/85632379.geojson,country,0,naturalearth,,,SO
"-61.80636215199996,15.83452796900008,-60.99708175699993,16.51869392400005",uuuu,85632423,2017-06-19,817edbf63f722c8940f91ec24959306c,,a3e4e086b27c30e7b49c5de8bcc1123b,16.201607,-61.534710,85632423,uuuu,GP,GP,1509142734,16.200657,-61.682832,0,Guadeloupe,102191575,856/324/23/85632423.geojson,country,0,quattroshapes,85671209,,FR
"32.678889,-17.135278,35.924166,-9.36718124999993",uuuu,85632383,,237d0195bb7e2f7d2a3188c179ae5dba,,1426a8bb3474301a558520660144d6f1,-13.221586,34.307580,85632383,uuuu,MW,MW,1509142796,-13.404159,33.658495,0,Malawi,102191573,856/323/83/85632383.geojson,country,0,quattroshapes,,,MW
"34.95547103900003,29.185036,39.301154,33.374735",uuuu,85632425,,135a7974237ff2b0f6e9fc03e5a6983d,,84114530c7b07f77767d9cf07a2793d4,31.249689,36.787824,85632425,uuuu,JO,JO,1509142784,30.802278,36.391378,0,Jordan,102191569,856/324/25/85632425.geojson,country,0,quattroshapes,,,JO
"97.34339600000038,5.61289550000043,105.63681200000042,20.46504700000048",uuuu,85632293,,aefab268ea1e344ee11636437e592add,,9aeff3815e0475fdd3a4ab320dd175cc,15.107267,101.011652,85632293,uuuu,TH,TH,1509143033,15.512883,101.301707,0,Thailand,102191569,856/322/93/85632293.geojson,country,0,quattroshapes,,,TH
"-70.062408,12.41767,-69.87682,12.632148",uuuu,85632295,,bda59869697f3fe053bb0fc2350778c3,,63ecb5dcae598ed20467878aa52dca7e,12.516935,-69.974201,85632295,uuuu,AW,AW,1509142573,12.517399,-69.972795,0,Aruba,102191575,856/322/95/85632295.geojson,country,0,naturalearth,,,AW
"50.75047302200005,24.471118,52.42124939000007,26.18372154200006",uuuu,85632299,,c53374fee06a344ace6da0a73ae6938b,,d8d8a18a4e01f61a51adff0c9d51836e,25.284253,51.191145,85632299,uuuu,QA,QA,1509142989,25.199602,51.160939,0,Qatar,102191569,856/322/99/85632299.geojson,country,0,quattroshapes,,,QA
"-92.23115315199993,13.74002800000011,-88.23105729849766,17.815687",uuuu,85632385,,7ab78e9c1bc273359cc0654ca0926ea0,,8866c634ee590f70121304b39a6a0e01,15.697019,-90.357506,85632385,uuuu,GT,GT,1509142734,14.989397,-90.522408,0,Guatemala,102191575,856/323/85/85632385.geojson,country,0,quattroshapes,,,GT
"14.415098,2.223053,27.458305,11.017957",uuuu,85632391,,cae170b2a57b0b93c7b739cbcda9ec56,,e7fe20f8f057995d3af3e64706468525,6.577783,20.484777,85632391,uuuu,CF,CF,1509142672,6.986429,21.668827,0,Central African Republic,102191573,856/323/91/85632391.geojson,country,0,quattroshapes,,,CF
"-73.56036,-55.05955505399999,-53.637481,-21.780814",uuuu,85632505,,b333cff16b200365f56b418eb46d0c99,,26cc9fc7a370e4d329f0036d4974ac50,-35.386406,-65.167366,85632505,uuuu,AR,AR,1509142569,-33.528049,-64.168459,0,Argentina,102191577,856/325/05/85632505.geojson,country,0,quattroshapes,,,AR
"25.66452789300007,35.80768,44.818128,42.104165",uuuu,85632393,,b08650a8894f7fbf768ed7003f016910,,1002efe2e71179236a1b104e8bcf3bf1,39.059334,35.167961,85632393,uuuu,TR,TR,1509143038,39.339547,34.510520,0,Turkey,102191569,856/323/93/85632393.geojson,country,0,quattroshapes,,,TR
"122.93458557100007,20.42288970900006,153.98706054700006,45.52288818400007",uuuu,85632429,,724bfda481c2e66f5f151aae9af46923,,34ccd842c9f079224b58bec53bd5fa46,37.529345,137.944760,85632429,uuuu,JP,JP,1509142777,36.137930,138.441899,0,Japan,102191569,856/324/29/85632429.geojson,country,0,quattroshapes,,,JP
"137.37461853000002,1.02538883700004,163.035827637,10.09038925200002",uuuu,85632431,,e2eac5f36cbb26f738793e8259833872,,ab52f133fa20dda8bae0c89c68c7a495,7.162667,154.491969,85632431,uuuu,FM,FM,1509142803,6.881557,158.221135,0,Federated States of Micronesia,102191583,856/324/31/85632431.geojson,country,0,quattroshapes,,,FM
"23.178943,51.262011,32.77682,56.172485",uuuu,85632395,,fc77240a16333ca14bfedb2d26234e67,,ec318afe2f5795ee6c53dc7e31778a22,53.541860,28.049461,85632395,uuuu,BY,BY,1509142653,53.832259,28.436510,0,Belarus,102191581,856/323/95/85632395.geojson,country,0,quattroshapes,,,BY
"-74.48294067399996,18.02041626000016,-71.62181,20.08838844300004",uuuu,85632433,,f126ddfcc5a80e5ea52a4919f868139b,,e9249b24ebc68262df878ff9cee95ac5,18.936379,-72.688703,85632433,uuuu,HT,HT,1509142737,19.251299,-72.294701,0,Haiti,102191575,856/324/33/85632433.geojson,country,0,quattroshapes,,,HT
"32.26788711500006,34.63230300000015,34.09122085600012,35.19455719000007",uuuu,85632437,,00942e6391a5d5b4f9b1a1a1c1a72ea2,,b5defceed67d815bcfb9322d9ac39750,34.916415,32.988458,85632437,uuuu,CY,CY,1509142714,34.881852,33.011051,0,Cyprus,102191569,856/324/37/85632437.geojson,country,0,quattroshapes,,,CY
"-61.41472799999985,1.16472400000026,-57.13347037198884,8.52589858981401",uuuu,85632397,,09e5b805ed2287208c40549c9358082e,,d763fcc9ca3d6b9f71312aab797df111,4.972835,-59.088820,85632397,uuuu,GY,GY,1509142737,5.121996,-58.912352,0,Guyana,102191577,856/323/97/85632397.geojson,country,0,quattroshapes,,,GY
"87.73762,41.58152,119.931949,52.148696",uuuu,85632439,,516a887a26fec243c679b65e266228e4,,883f342d4738812d1dca89b652532570,46.836005,103.069090,85632439,uuuu,MN,MN,1509142803,45.993390,104.159557,0,Mongolia,102191569,856/324/39/85632439.geojson,country,0,quattroshapes,,,MN
"-69.16122436499995,11.97875022900007,-68.64128112799995,12.39786148100006",uuuu,85632441,,54b796339334f6f11434f55cd3a06f9c,,16a53e4fae857bcda3a334fd048b2b0d,12.196377,-68.967874,85632441,uuuu,CW,CW,1509142713,12.150201,-68.933415,0,Curacao,102191575,856/324/41/85632441.geojson,country,0,quattroshapes,,,CW
"-58.070506,1.837306,-53.978763,6.01663875600013",uuuu,85632443,,33746620183b2b03955e5f7505bd3ea0,,a906daa32c6668391de8a23dc32ee809,4.139468,-55.906476,85632443,uuuu,SR,SR,1509143028,4.165951,-55.945507,0,Suriname,102191577,856/324/43/85632443.geojson,country,0,quattroshapes,,,SR
"-16.81708335899998,13.06530792600017,-13.798611,13.82638900000012",uuuu,85632603,,3d61c9f290b871d7e4d4edb34e0cc01b,,4ee9a2238650ebe05c7efa730a53b6c7,13.453100,-15.387105,85632603,uuuu,GM,GM,1509142730,13.505929,-15.362493,0,Gambia,102191573,856/326/03/85632603.geojson,country,0,quattroshapes,,,GM
"103.63583661020124,1.15396544458025,104.40678420000006,1.4703098325802",uuuu,85632605,,f62a6fdd3703ed0d3d0f09fc5f917408,,57207c15e9ed2e97b1e151f125ec7452,1.360758,103.816575,85632605,uuuu,SG,SG,1507665445,1.357685,103.809380,0,Singapore,102191569,856/326/05/85632605.geojson,country,0,quattroshapes,,,SG
"176.0664452121269,-10.76920179178356,179.89641652512688,-5.63750699778356",uuuu,85632607,,705430c0252be63eec30fa4b5721e38e,,3f3661aabad5cdc7d598e9fd1a8ef17b,-7.643199,178.184973,85632607,uuuu,TV,TV,1509143040,-8.534062,179.208387,0,Tuvalu,102191583,856/326/07/85632607.geojson,country,0,quattroshapes,,,TV
"-8.60205899999988,4.35283327100006,-2.49303099999986,10.740015",uuuu,85632449,,652aa1d1601ef660f01c79f94ad1c2f1,,cc502e8e98967e53e44cfb09951fc2bb,7.621754,-5.553038,85632449,uuuu,CI,CI,1509142709,7.568978,-5.495164,0,Ivory Coast,102191573,856/324/49/85632449.geojson,country,0,quattroshapes,,,CI
"15.716074,42.559212,19.618885,45.284524",uuuu,85632609,,904ad8b2e64ae135da6bac89489beac0,,63dfae6a2d61219b1e1590e5c80c7981,44.171734,17.773408,85632609,1992-03~/1992-04~,BA,BA,1509142656,44.091039,18.068430,0,Bosnia and Herzegovina,102191581,856/326/09/85632609.geojson,country,0,naturalearth,,1108955785,BA
"116.92708587600009,4.50538873700003,126.60458374000007,21.12541580200008",uuuu,85632509,,07055dc7e6ad47059161728923a66604,,78322d01564ad89ff016018c2d279d9f,11.737001,122.863263,85632509,uuuu,PH,PH,1509142984,16.932122,121.387948,0,Philippines,102191569,856/325/09/85632509.geojson,country,0,quattroshapes,,,PH
"-58.43930039999992,-34.97624969499998,-53.07775609499993,-30.08521499999983",uuuu,85632511,,c3f511fd27593aaabf5f443d4bd79417,,0429677ae429e2cc09ae74371c3af327,-32.795650,-56.017681,85632511,uuuu,UY,UY,1509143048,-32.838882,-56.016820,0,Uruguay,102191577,856/325/11/85632511.geojson,country,0,quattroshapes,,,UY
"-8.66667,18.96814700000016,11.99999930100012,37.0887489320001",uuuu,85632451,,8978b33efcf393bc006e53b8a6d75813,,a952f4f87b83acf8802a1f8b85f147bd,28.150344,2.675699,85632451,uuuu,DZ,DZ,1509142565,27.896890,3.379277,0,Algeria,102191573,856/324/51/85632451.geojson,country,0,quattroshapes,,,DZ
"-69.64499,-22.89809,-57.453803,-9.669323",uuuu,85632623,,08d5afb0028c9ef31c56568028330154,,094cc45271ae7fd9542b34186887b6c1,-16.712028,-64.662468,85632623,uuuu,BO,BO,1509142655,-16.640652,-64.661928,0,Bolivia,102191577,856/326/23/85632623.geojson,country,0,quattroshapes,,,BO
"-176.21963500999996,-22.34208297699996,-173.70043945299997,-15.56041622199996",uuuu,85632455,,e6fd4dd2a2088b0f4c5406c41113a3ad,,c2c500fe8cdd26b055a496ec985847f1,-19.842767,-174.817922,85632455,uuuu,TO,TO,1509143038,-21.230852,-175.141270,0,Tonga,102191583,856/324/55/85632455.geojson,country,0,quattroshapes,,,TO
"67.342012,36.672037,75.15382550000004,41.044367",uuuu,85632513,,2d4dbdfdc3d4bbeac6570caff658078b,,ee68bede8be7a302b7286b9d9f2bae31,38.527586,71.007410,85632513,uuuu,TJ,TJ,1509143031,38.185311,72.571946,0,Tajikistan,102191569,856/325/13/85632513.geojson,country,0,quattroshapes,,,TJ
"-4.83088874799995,54.04116821300005,-4.30761098899995,54.41619491600005",uuuu,85632461,,e2123a8971f18c7f2f7346c3403f04cb,,a717787bbd15a0e8c5d6d60a273f303a,54.225532,-4.539121,85632461,uuuu,IM,IM,1509142774,54.255204,-4.497080,0,Isle of Man,102191581,856/324/61/85632461.geojson,country,0,quattroshapes,,,IM
"29.57355842900017,-1.48148349999985,35.03304900000012,4.218628",uuuu,85632625,,beb67bf02ca9e94eeaa75765f455a644,,1fed536e0e2921937c4ca6eddedb4e4d,1.278252,32.391663,85632625,uuuu,UG,UG,1509143040,0.904060,32.443764,0,Uganda,102191573,856/326/25/85632625.geojson,country,0,quattroshapes,,,UG
"80.052222,26.347779,88.199298,30.446945",uuuu,85632465,,d883e6988d1dbb3a4ada72b8a1510606,,b6e3937430518870a91ce478a8cd275c,28.257628,83.943041,85632465,uuuu,NP,NP,1509142813,28.323184,83.603740,0,Nepal,102191569,856/324/65/85632465.geojson,country,0,quattroshapes,,,NP
"9.391466,19.5,25.14937067999995,33.16611099600004",uuuu,85632627,,c6e841611e2fbd45502ebe75826a8d25,,b0cac92c2998f2ebb6dcebd0df69a368,27.044044,18.029402,85632627,uuuu,LY,LY,1509142796,26.666955,18.030248,0,Libya,102191573,856/326/27/85632627.geojson,country,0,quattroshapes,,,LY
"30.79064,-27.317396,32.13484446200005,-25.71792",uuuu,85632635,,d61de196b0a288ff13ee7880c69feab0,,267ca3a54028b98d5712c3a065baa4fc,-26.565760,31.497665,85632635,uuuu,SZ,SZ,1509143029,-26.574488,31.484912,0,Swaziland,102191573,856/326/35/85632635.geojson,country,0,quattroshapes,,,SZ
"-13.302072,6.92161600000014,-10.271683,9.999973",uuuu,85632467,,a5f1b5219400a3b190e19e2eebe34c76,,53cbd52487d8c463a36f12c37f37a4bc,8.559959,-11.789689,85632467,uuuu,SL,SL,1509143020,8.616007,-11.756202,0,Sierra Leone,102191573,856/324/67/85632467.geojson,country,0,quattroshapes,,,SL
"-81.73772430399998,-4.22711,-66.85192299999989,14.47197246600007",uuuu,85632519,,2494b29b2dd37ae62f059fb3e2613a68,,811ce8a396fad32c484833a714ad4a4c,3.906986,-73.080551,85632519,uuuu,CO,CO,1509142705,3.420497,-73.166783,0,Colombia,102191577,856/325/19/85632519.geojson,country,0,quattroshapes,,,CO
"124.18538665800008,37.67678370721279,130.6994505759476,43.01159000000024",uuuu,85632639,,0f4ac37a39bee8bbcda14c279f659fdd,,595696d9234bf07f75c03945dc740fd7,40.143512,127.173304,85632639,uuuu,KP,KP,1509142714,40.248916,126.699424,0,North Korea,102191569,856/326/39/85632639.geojson,country,0,quattroshapes,,,KP
"-81.32878112799989,-18.35178810099995,-68.652329,-0.038777",uuuu,85632521,,ac02c20374d6c9de98fb2979a387bf63,,37f46858073358d2ad5312d89bd2ddf1,-9.170911,-74.357813,85632521,uuuu,PE,PE,1509142981,-12.980780,-72.876651,0,Peru,102191577,856/325/21/85632521.geojson,country,0,quattroshapes,,,PE
"45.01455688500005,-13.00461101499997,45.29791641200006,-12.63374996199997",uuuu,85632523,2017-06-19,fdc26fcfa9438581479d7f59f2974484,,83c0323620b9152236d801893cb759f5,-12.819329,45.145812,85632523,uuuu,YT,YT,1509142802,-12.808077,45.149966,0,Mayotte,102191573,856/325/23/85632523.geojson,country,0,quattroshapes,85671203,,FR
"-62.35302734399996,16.93202781700005,-61.65755462599996,17.73041725200005",uuuu,85632529,,e4ba214201dcc510908d2b4e09ac0feb,,bb59b4e660a3c4c401e15d9c94f758cb,17.278150,-61.799121,85632529,uuuu,AG,AG,1509142568,17.069380,-61.809739,0,Antigua and Barbuda,102191575,856/325/29/85632529.geojson,country,0,quattroshapes,,,AG
"-61.23522186299994,14.38494491600005,-60.81586074799998,14.87680530500006",uuuu,85632531,2017-06-19,d3224643dd4c58cbdd3c3da6cb9b36e3,,acba86b9726811ab430a69322d8c984e,14.649411,-61.023176,85632531,uuuu,MQ,MQ,1509142802,14.703527,-61.061899,0,Martinique,102191575,856/325/31/85632531.geojson,country,0,quattroshapes,85671191,,FR
"12.20199207200011,-13.459035,31.31461100000018,5.392003",uuuu,85632643,,1fa09dd7bbb28cda899bb027d6880994,,760422e7f9b0ab78f8fdd3695308e61a,-2.877746,23.655647,85632643,uuuu,CD,CD,1509142716,-2.271721,23.513592,0,Democratic Republic of the Congo,102191573,856/326/43/85632643.geojson,country,0,quattroshapes,,,CD
"35.10366810700003,33.055026,36.62372,34.69208",uuuu,85632533,,fbe3f9ab22bac335a0c93e83e2a59b2a,,e6f421746a5d517d16366dbc574ac810,33.921502,35.893878,85632533,uuuu,LB,LB,1509142794,34.095838,35.956580,0,Lebanon,102191569,856/325/33/85632533.geojson,country,0,quattroshapes,,,LB
"55.99821800000012,37.17225700000017,73.14894600000014,45.590075",uuuu,85632645,,5772621341134c2ad43e598547c20eb9,,42b30b065ed38867009fa7731e085068,41.774572,63.124064,85632645,uuuu,UZ,UZ,1509143048,41.726948,63.960684,0,Uzbekistan,102191569,856/326/45/85632645.geojson,country,0,quattroshapes,,,UZ
"68.16242971800006,8.07369422900064,97.17667800000072,33.2328555360001",uuuu,85632469,,8cdf29cab30d6dfe09fec5b906c33cac,,888e25ed0301a037e25c5159c6a18061,22.348248,79.356693,85632469,uuuu,IN,IN,1509142740,22.412321,79.132924,0,India,102191569,856/324/69/85632469.geojson,country,0,quattroshapes,,,IN
"11.73447227500014,-28.970639,25.26175200000012,-16.96348499999988",uuuu,85632535,,1dd3298b6392468d8a96b1a432428c1d,,4668bc2b1c3576a817cd834b96532ef9,-22.139622,17.222159,85632535,uuuu,NA,NA,1509142812,-20.586347,17.119649,0,Namibia,102191573,856/325/35/85632535.geojson,country,0,quattroshapes,,,NA
"-0.1440419999999,6.11228345354743,1.80905000000013,11.13955226400003",uuuu,85632647,,4b571c9b59dbfed2dfb26c3dabb740f8,,cbb9a0d7c8da875a14ebab34d0e95707,8.531810,0.978788,85632647,uuuu,TG,TG,1509143037,8.846267,1.073832,0,Togo,102191573,856/326/47/85632647.geojson,country,0,quattroshapes,,,TG
"11.15324201144574,-5.03138887999989,18.643611,3.707791",uuuu,85632541,,4f0ee647faba8965f743217219a8e426,,57ba533ee3bc4d9976706550b0371299,-0.839669,15.222886,85632541,uuuu,CG,CG,1509142707,0.133504,15.904453,0,Republic of Congo,102191573,856/325/41/85632541.geojson,country,0,quattroshapes,,,CG
"-90.13353312799995,13.15413856500004,-87.68157958999996,14.450557",uuuu,85632545,,b842cf9e9cc6da90da8dea0a117eaacc,,bb79ee6d2b07d90a3c6ccce6c13887b6,13.734086,-88.866013,85632545,uuuu,SV,SV,1509142721,13.762548,-88.952198,0,El Salvador,102191575,856/325/45/85632545.geojson,country,0,quattroshapes,,,SV
"-2.70955562599994,49.40039062500006,-2.15530562399994,49.73875045800003",uuuu,85632547,,4242c2ef6ae9cdbcb81d97b7f9bc8755,,56abb7361d23a6c2dee78350067616fa,49.484744,-2.516711,85632547,uuuu,GG,GG,1509142734,49.454813,-2.566659,0,Guernsey,102191581,856/325/47/85632547.geojson,country,0,quattroshapes,,,GG
"-62.86794280999999,17.09202766400006,-62.54202651999998,17.41625022900007",uuuu,85632551,,9c96547fc3f3f402a0e40bf22caa8dd4,,36822a68ea4f1626c05778f24e62484d,17.270286,-62.704037,85632551,uuuu,KN,KN,1509143018,17.340311,-62.767596,0,Saint Kitts and Nevis,102191575,856/325/51/85632551.geojson,country,0,quattroshapes,,,KN
"7.479832,30.228905,11.564131,37.345201",uuuu,85632703,,508c458b5d10682b043c590a4e9c7bc6,,1d3efb36b651ad6d61a91e5c23e8fb83,34.119405,9.554626,85632703,uuuu,TN,TN,1509143038,33.687264,9.007775,0,Tunisia,102191573,856/327/03/85632703.geojson,country,0,naturalearth,,,TN
"88.0085890060002,20.59036064100007,92.68011500000011,26.634243",uuuu,85632475,,d5ffd9eb729e4910072ae5871b221f28,,2e4dbe76c98625ec21da299aa1b339b8,23.837247,90.268247,85632475,uuuu,BD,BD,1509142650,24.045958,90.032723,0,Bangladesh,102191569,856/324/75/85632475.geojson,country,0,quattroshapes,,,BD
"-12.238885,10.147811,4.26738276000003,25.001084",uuuu,85632553,,9ed2dd8d88e03970b15e1d91217a80f6,,453368d10a06b1b7a8ed0cbca8687086,17.349899,-3.516035,85632553,uuuu,ML,ML,1509142800,18.683211,-2.015109,0,Mali,102191573,856/325/53/85632553.geojson,country,0,quattroshapes,,,ML
"113.8327790400001,22.15197180000024,114.44125356000018,22.56190733300059",uuuu,85632483,,b6dd8cf71e24df038d9756525ae6f2bf,,83b9871db5cc9691a8c48dfaf91dd291,22.381131,114.135572,85632483,uuuu,HK,HK,1509142704,22.440384,114.098975,0,Hong Kong S.A.R.,102191569,856/324/83/85632483.geojson,country,0,quattroshapes,,,HK
"-174.54631042499997,-11.44541645099997,176.84538269000006,4.72597217600003",uuuu,85632709,,7950b33edb594264a3ab73424d514c52,,add2bab9efc23b365a864cf281b64491,0.625966,-43.735435,85632709,uuuu,KI,KI,1509142790,1.828988,-157.373327,0,Kiribati,102191583,856/327/09/85632709.geojson,country,0,quattroshapes,,,KI
"23.44084900000024,3.48898650000024,35.94899700000025,12.23638900000014",uuuu,85632657,,751b147e46514d292e74936367cea8a4,,d7ae1bc61180b71f1df6ce4f1c7fd5a1,7.332293,30.202165,85632657,uuuu,SS,SS,1509143024,7.170803,30.109512,0,South Sudan,102191573,856/326/57/85632657.geojson,country,0,quattroshapes,,85632477,SS
"60.844379,23.694525,77.048971,37.054484",uuuu,85632659,,08b820b50fe35439908cad21f44d5f78,,3f4ddbe05f8d3ddb8200585e6f590780,29.948497,69.341343,85632659,uuuu,PK,PK,1509142979,29.328493,68.546268,0,Pakistan,102191569,856/326/59/85632659.geojson,country,0,quattroshapes,,,PK
"46.19952774000006,-10.21961116799997,56.29875183100006,-3.71205544499998",uuuu,85632661,,ccfc1395a6cd93e6f9b5bb5bf987b1d5,,80e3275cdb1d44fce09be1cf049d03f0,-6.722489,51.818587,85632661,uuuu,SC,SC,1509143020,-4.681046,55.482794,0,Seychelles,102193527,856/326/61/85632661.geojson,country,0,quattroshapes,,,SC
"-72.007414,17.46702766400006,-68.32541656499995,19.93380546600019",uuuu,85632713,,652cc582d769d929def8fdcd924592fd,,27f1cba8d4536f9b12218c727cbb1baf,18.894233,-70.495588,85632713,uuuu,DO,DO,1509142718,19.105937,-70.804224,0,Dominican Republic,102191575,856/327/13/85632713.geojson,country,0,quattroshapes,,,DO
"-87.09747314499998,5.50144434000003,-82.55265699999984,11.219681",uuuu,85632487,,b72900d4ab633fdb606ac060a0766d19,,5b98c8c4d62c62cc61bc527189be80f9,9.971356,-84.197567,85632487,uuuu,CR,CR,1509142709,10.068183,-84.028584,0,Costa Rica,102191575,856/324/87/85632487.geojson,country,0,quattroshapes,,,CR
"-59.65263748199996,13.04483318300005,-59.42074966399996,13.33586120600005",uuuu,85632491,,4793f92c8e705728d3e561b28d96d9b8,,7e58e9b5d64ace75333a4c19c98ea43a,13.172783,-59.557497,85632491,uuuu,BB,BB,1509142652,13.144115,-59.555728,0,Barbados,102191575,856/324/91/85632491.geojson,country,0,quattroshapes,,,BB
"96.82154381629414,-12.19996510160809,105.71289062500006,-10.41211128199996",uuuu,85632495,,0f20788e056000203fd965ea4f707eef,,ca6f41022ec03bd3ee4196ba1f2af485,-10.630536,104.883515,85632495,uuuu,CC,CC,1509142704,-12.002000,96.878500,0,Indian Ocean Territories,102191569,856/324/95/85632495.geojson,country,0,naturalearth,,,CC
"42.545746,12.111444,54.540294,18.995638",uuuu,85632499,,cda22f81349110c694902064ae5d4682,,dd19869683cd6ecdda78b3affc247d0d,15.905421,47.590602,85632499,uuuu,YE,YE,1509143055,15.328226,45.874382,0,Yemen,102191569,856/324/99/85632499.geojson,country,0,naturalearth,,,YE
"160.8061981200001,4.57119464900006,172.16377258300008,14.65791702300004",uuuu,85632663,,35405c00ee937d35222cb2a74a6d26db,,aaf2868a63c208211ddafc3e1e1e51d3,8.512687,169.015454,85632663,uuuu,MH,MH,1507665445,8.710837,171.237308,0,Marshall Islands,102191583,856/326/63/85632663.geojson,country,0,quattroshapes,,,MH
"21.996388,-18.077418,33.702222,-8.203284",uuuu,85632559,,98e6edf4a1e8afa30b252dc7f1cb575e,,56d8b8fee77cea7e44e49bb694e174cf,-13.454028,27.797599,85632559,uuuu,ZM,ZM,1509143055,-14.936526,25.940824,0,Zambia,102191573,856/325/59/85632559.geojson,country,0,quattroshapes,,,ZM
"-180,-90,180,-60.516209",uuuu,85632715,,de174a5881fd6c3b2d6b3845497acab7,,8f1fc00f63ba6da9608cd8b20d932c60,-80.508219,19.908399,85632715,uuuu,AQ,AQ,1509142567,-79.843222,35.885456,0,Antarctica,102191579,856/327/15/85632715.geojson,country,0,naturalearth,,"85681139,85681147",AQ
"-61.46549987799995,12.57533359500007,-61.11958312999997,13.38041687000003",uuuu,85632569,,cea4ec95e7d5fa6a083acdd0a9276431,,83c52a5a2c8744d5ad66a6acec58e4ed,13.192300,-61.206681,85632569,uuuu,VC,VC,1509143018,13.233570,-61.199573,0,Saint Vincent and the Grenadines,102191575,856/325/69/85632569.geojson,country,0,quattroshapes,,,VC
"44.774559,38.392645,50.625743,41.890442",uuuu,85632717,,cd77910d3f27115eafda33b92692d3c3,,e931ee16f16c593f0923b5191f0a0f52,40.289119,47.542111,85632717,uuuu,AZ,AZ,1509142648,40.402387,47.210994,0,Azerbaijan,102191569,856/327/17/85632717.geojson,country,0,naturalearth,,,AZ
"18.43398000000036,41.84634496506129,20.35291100000035,43.55874300000033",uuuu,85632667,,e962686941af8aae427275a4e6c32824,,0cf02fccfbd08b42a61297f65b46bc82,42.786412,19.251705,85632667,2006-05~/2006-06~,ME,ME,1509142804,42.782845,19.157424,0,Montenegro,102191581,856/326/67/85632667.geojson,country,0,quattroshapes,,1108955783,ME
"52.437671,35.140647,66.645782,42.791188",uuuu,85632671,,4ab4b023888d1c13194258a3e6e82881,,a4649264d51cd0762213c78d184e4944,39.115934,59.375961,85632671,uuuu,TM,TM,1509143040,39.869796,58.676541,0,Turkmenistan,102191569,856/326/71/85632671.geojson,country,0,naturalearth,,,TM
"-25.36627769499995,14.80125045800003,-22.66213798499996,17.21041679400003",uuuu,85632721,,f48686c148af18e1e73d8e999d6c3d15,,b7365ce207a07c871df1292f87c134a8,15.948478,-23.983693,85632721,uuuu,CV,CV,1509142667,15.047320,-23.618479,0,Cape Verde,102191573,856/327/21/85632721.geojson,country,0,quattroshapes,,,CV
"-68.41955566399997,12.02872180900005,-62.94294357299998,17.64855575600006",uuuu,85632727,,a9f88d9d91cf7e3de1b34ca6a4440c21,,33921ad2f807398b234b6c0a18384599,12.804580,-67.689731,85632727,uuuu,AN,AN,1505169296,12.194274,-68.249092,0,Netherlands,-1,856/327/27/85632727.geojson,country,0,quattroshapes,136251281,,AN
"-89.227586,15.88562150000018,-87.48210906999996,18.49594200000018",uuuu,85632571,,03de13dfd0516a6a8077836881ce9303,,c9eed4665222e65c1daba7b034459c09,17.207057,-88.690251,85632571,uuuu,BZ,BZ,1509142654,17.206637,-88.714488,0,Belize,102191575,856/325/71/85632571.geojson,country,0,quattroshapes,,,BZ
"51.49711227400007,22.63151376400003,56.38124847400007,26.069654",uuuu,85632573,,ba8b5481b8817a76c46384340f30be7f,,62523694ab64fd0e1e66ff5c5cc62c4a,23.910293,54.330345,85632573,uuuu,AE,AE,1509143041,23.474380,54.576046,0,United Arab Emirates,102191569,856/325/73/85632573.geojson,country,0,quattroshapes,,,AE
"30.21555,-26.86816149999993,40.84875106800007,-10.47719478599993",uuuu,85632729,,b570399ac606793fc2264411f1ec6aa6,,55185ecc86c73cb3c11c3e26d8394645,-17.260097,35.553840,85632729,uuuu,MZ,MZ,1509142805,-13.885531,37.837456,0,Mozambique,102191573,856/327/29/85632729.geojson,country,0,quattroshapes,,,MZ
"24.69677500000023,22.00000000000011,36.24955368000008,31.67099000000019",uuuu,85632581,,435db99e64745c8326686f51a7880534,,878c818d122b43a9efa0b89ad81fbc21,26.569487,29.773320,85632581,uuuu,EG,EG,1509142720,26.422310,29.227089,0,Egypt,102191573,856/325/81/85632581.geojson,country,0,quattroshapes,,,EG
"-84.95207977299998,19.82625007600012,-74.13378143299991,23.27708244300004",uuuu,85632675,,9ba3e104bce576fe8b5bb03aae7b68f0,,70f91ba40fe865498f032aae1f4d08a5,21.626540,-79.034169,85632675,uuuu,CU,CU,1509142711,21.329612,-77.967722,0,Cuba,102191575,856/326/75/85632675.geojson,country,0,quattroshapes,,,CU
"42.67008000000015,8.00113900000014,48.93911055500007,11.53547191600006",uuuu,85632733,,044119afff691b36a74cf538693a39a3,,0854d939b847b0525e52bd4ff4f53212,9.725679,46.275584,85632733,uuuu,XS,XS,1505169298,9.439981,46.750416,0,Somaliland,102191573,856/327/33/85632733.geojson,country,0,quattroshapes,,,XS
"124.04173800000012,-9.50419499999981,127.34572789768637,-8.13458347299996",uuuu,85632583,,465555267e47a688af35750b2febe550,,0461b525cf17c49d4bd336e3fd8f5479,-8.820426,125.853832,85632583,uuuu,TL,TL,1509143037,-8.801828,125.866054,0,East Timor,102191569,856/325/83/85632583.geojson,country,0,quattroshapes,,,TL
"-17.070134,14.72127300000011,-4.83333448299987,27.2944444630001",uuuu,85632679,,6320926f15c6788a3522ff4c9e672baa,,8a1ee89878b1586de6af6520ef47a108,20.253806,-10.337533,85632679,uuuu,MR,MR,1509142802,19.599264,-9.737341,0,Mauritania,102191573,856/326/79/85632679.geojson,country,0,quattroshapes,,,MR
"-172.782582,-14.05283,-171.437693,-13.462823",uuuu,85632681,,86cb23dc0ae58a14d1e3020658709032,,c90204d71f0b733cc1e4b08152e62e51,-13.754596,-172.161249,85632681,uuuu,WS,WS,1509143019,-13.639140,-172.438241,0,Samoa,102191583,856/326/81/85632681.geojson,country,0,naturalearth,,,WS
"2.676932,4.27538871800004,14.677982,13.885645",uuuu,85632735,,291525f84b4fabe595ac8c6c67d1c5cb,,ac6a2eb88828cdc6ab19e5148bb4af9e,9.591652,8.101818,85632735,uuuu,NG,NG,1509142976,9.404974,7.607418,0,Nigeria,102191573,856/327/35/85632735.geojson,country,0,quattroshapes,,,NG
"155.5129241940001,-12.59807872889502,170.10041809100005,-5.00041675599994",uuuu,85632591,,ddb9dc3b2100f1e238a76ae0e5293315,,7205cbd8f3fde92c935687a13c80ef69,-8.890989,159.594827,85632591,uuuu,SB,SB,1509143022,-8.078523,159.243596,0,Solomon Islands,102191583,856/325/91/85632591.geojson,country,0,quattroshapes,,,SB
"-2.25288891799994,48.89541626000005,-1.78461110599994,49.29794311500007",uuuu,85632593,,74fadf99af8e26fd8c004b07ab264760,,083df51571959fb54c8d6984ad1bfbe9,49.208376,-2.130720,85632593,uuuu,JE,JE,1509142784,49.224297,-2.130418,0,Jersey,102191581,856/325/93/85632593.geojson,country,0,quattroshapes,,,JE
"-87.69233703599991,10.708055,-82.55039215099998,15.03027500000013",uuuu,85632599,,3b8e0b8cf2a69201b2bf2303d06bcc7e,,c8dc0ac6fd7f7d9528c075f2ae19fe43,12.845499,-85.038520,85632599,uuuu,NI,NI,1509142975,12.793313,-85.039545,0,Nicaragua,102191575,856/325/99/85632599.geojson,country,0,quattroshapes,,,NI
"99.64038848900003,0.85382100000027,119.27544408000028,7.48374986600004",uuuu,85632739,,54a45ce526a9d4e7f947438022df66b7,,f91d11f7b274a728aa6d4d63e2c821a2,3.794597,109.723220,85632739,uuuu,MY,MY,1509142797,2.521947,113.833569,0,Malaysia,102191569,856/327/39/85632739.geojson,country,0,quattroshapes,,,MY
"166.906993,-0.551853,166.958263,-0.490411",uuuu,85632747,,b0e0f3ec640d09a294e5b1203fc44957,,51e1d63023277f538a1e35109d84b96c,-0.520783,166.933132,85632747,uuuu,NR,NR,1509142813,-0.520261,166.932644,0,Nauru,102191583,856/327/47/85632747.geojson,country,0,naturalearth,,,NR
"114.07612300000028,4.00250800000049,115.3605193200001,5.04955575000048",uuuu,85632749,,7fb7e09f68b1f9d91da336fd24282487,,b4987b7ccb954f18abcd8220340e928d,4.523060,114.749236,85632749,uuuu,BN,BN,1509142666,4.479716,114.578687,0,Brunei,102191569,856/327/49/85632749.geojson,country,0,quattroshapes,,,BN
"21.814939,9.488887,38.84294509900008,23.18880462600004",uuuu,85632751,,cedebde21bbd6daebfe89dee791e7b29,,31a7108dc9a0ebc1320254e89db3801b,16.138653,30.056644,85632751,uuuu,SD,SD,1509143027,16.349970,29.381307,0,Sudan,102191573,856/327/51/85632751.geojson,country,0,quattroshapes,,,SD
"-180,-21.73865894999994,180.00000000000023,-12.45711135899995",uuuu,85632755,,f3e026f6ca55a7936b4d84ae9e4f198f,,022342a974c5b9228b8acad06ba4e5fd,-17.442914,160.603683,85632755,uuuu,FJ,FJ,1509142725,-17.834016,177.972004,0,Fiji,102191583,856/327/55/85632755.geojson,country,0,quattroshapes,,,FJ
"-16.71182751903325,10.85788917500003,-13.626523,12.684722",uuuu,85632757,,51fa1dc0a8074ddacab0dce5694dd84b,,59922c4f8a4c3f49c5b34aaaa2674794,12.013056,-14.977735,85632757,uuuu,GW,GW,1509142736,12.157338,-14.513869,0,Guinea Bissau,102191573,856/327/57/85632757.geojson,country,0,quattroshapes,,,GW
"69.250998,39.180254,80.226559,43.265357",uuuu,85632761,,5a76143a2c43613f0d3cae1842f95a31,,4947deabca5fba7043b02646eaf2e156,41.464774,74.529537,85632761,uuuu,KG,KG,1509142791,41.682680,74.524734,0,Kyrgyzstan,102191569,856/327/61/85632761.geojson,country,0,quattroshapes,,,KG
"-73.982817,-33.75099099999989,-28.84148585999998,5.271602",uuuu,85633009,,5be7fe265322c9a22245a9d8acc34bec,,43ba0bf5a0880e67835393f5859ce216,-10.768273,-53.085014,85633009,uuuu,BR,BR,1509142659,-11.928923,-49.542449,0,Brazil,102191577,856/330/09/85633009.geojson,country,0,quattroshapes,,,BR
"102.14424891700014,8.37794399300003,109.47458648700007,23.39339500000017",uuuu,85632763,,eb7a9989015d081683e392575260aa6e,,c4f320acafbf07fb4eb859df8f10e875,16.654637,106.306567,85632763,uuuu,VN,VN,1509143052,21.732568,105.396672,0,Vietnam,102191569,856/327/63/85632763.geojson,country,0,quattroshapes,,,VN
"6.46041679400003,-0.01294444399997,7.47455549200004,1.73125004800005",uuuu,85632765,,dfba3b598922160d36efd073d2c78024,,e6310dd701ced9e0c8f78183175d1ef2,0.411279,6.700564,85632765,uuuu,ST,ST,1509143019,0.252119,6.600203,0,Sao Tome and Principe,102191573,856/327/65/85632765.geojson,country,0,quattroshapes,,,ST
"43.44721250000003,38.840244,46.634222,41.300993",uuuu,85632773,,d10fbb6c29ab57a95becd2e4888f938c,,41bcce129722b6c9b76440b6c1e3ff2e,40.294682,44.938953,85632773,uuuu,AM,AM,1509142572,40.474724,44.805610,0,Armenia,102191569,856/327/73/85632773.geojson,country,0,quattroshapes,,,AM
"-141.005549,41.669086,-52.615931,83.116116",uuuu,85633041,,78485835a8db5164677df05183f7378d,,d5ffe3852f2890a8993d66487f7dcd42,61.373126,-98.316063,85633041,1867-07-01,CA,CA,1509142669,58.337470,-112.384858,0,Canada,102191575,856/330/41/85633041.geojson,country,0,naturalearth,,,CA
"36.433348,12.35472300000015,43.13704792743641,18.02041378195617",uuuu,85632781,,d07caf1e2ce0b8163ce0638c04e71332,,67446e1738b59cfec79452da0651431f,15.382148,38.842185,85632781,uuuu,ER,ER,1509142722,15.817362,38.267404,0,Eritrea,102191573,856/327/81/85632781.geojson,country,0,quattroshapes,,,ER
"9.52995949999979,46.37229899999985,17.16070349999978,49.02033599999984",uuuu,85632785,,1be8eb9fd6df4bb8d08b8d9b4ac11e31,,cf2a484097d4609038081f78b4b09645,47.586911,14.141446,85632785,uuuu,AT,AT,1509142647,47.522617,14.143702,0,Austria,102191581,856/327/85/85632785.geojson,country,0,quattroshapes,,,AT
"5.95590226131323,45.81798111138761,10.49206368645417,47.80845320929262",uuuu,85633051,,d583516b971e250e9ae2c5e4f0685f74,,3697cd7680703a3c5ec9eed2e1e6f8fc,46.800148,8.229121,85633051,uuuu,CH,CH,1509143029,46.730219,7.509687,0,Switzerland,102191581,856/330/51/85633051.geojson,country,0,quattroshapes,,,CH
"5.86600299999981,47.27035149999983,15.04148949999979,55.05737449999984",uuuu,85633111,,25ca195d3fbbc4d354f9c86cb0d57fa5,,ae84c7114f4f2cc9f29306f6af942866,51.112876,10.391873,85633111,uuuu,DE,DE,1509142731,51.196755,9.627430,0,Germany,102191581,856/331/11/85633111.geojson,country,0,quattroshapes,,85633115,DE
"8.094005,54.56859,15.151378,57.751166",uuuu,85633121,,4dec46f7aa822888288f56ef159a37c1,,28bed96750141255a8643806e7f777b6,55.965378,10.051390,85633121,uuuu,DK,DK,1509142718,55.966966,9.018163,0,Denmark,102191581,856/331/21/85633121.geojson,country,0,naturalearth,,,DK
"-18.167226,27.642239,4.337087,43.793443",uuuu,85633129,,b993ca8cb947401194c58350407b1fd8,,0f4d3547ce04ae2a337f16e74f3785a3,40.227234,-3.652637,85633129,uuuu,ES,ES,1509143025,40.090950,-3.464618,0,Spain,102191581,856/331/29/85633129.geojson,country,0,naturalearth,,,ES
"21.832367,57.515819,28.186475,59.670885",uuuu,85633135,,68a082da73ee3d6e1c177a5a70d9b10b,,199bed699357bccd56ccca739b29a6d6,58.671014,25.535793,85633135,uuuu,EE,EE,1509142723,58.722853,25.867131,0,Estonia,102191581,856/331/35/85633135.geojson,country,0,naturalearth,,,EE
"20.623165,59.811225,31.569525,70.07531",uuuu,85633143,,dc9b189801b9890bf55db003713b579d,,157ca23d38c8d20c52c1fa1cf1493dab,64.495359,26.270795,85633143,uuuu,FI,FI,1509142726,63.252357,27.276469,0,Finland,102191581,856/331/43/85633143.geojson,country,0,naturalearth,,,FI
"-61.797076,-21.370839,55.855019,51.087167",uuuu,85633147,,f76439f8e075b2d35d79af1de0481bee,,c9e8f8bebf1b6a77a536d33e816633e9,42.171601,-2.770525,85633147,uuuu,FR,FR,1509142726,46.698481,2.549047,0,France,102191581,856/331/47/85633147.geojson,country,0,naturalearth,,,FR
"-179.99998309199992,41.18535300000036,179.99998311100012,81.86164093000008",uuuu,85632685,,6b2d920fdb7ba49dc608711c2487f720,,8e2d565f24de782cbe1baff21e80d613,61.996728,96.665965,85632685,uuuu,RU,RU,1509142998,63.314401,93.884016,0,Russia,102191581,856/326/85/85632685.geojson,country,0,quattroshapes,,,RU
"-13.691314,49.909613,1.771169,60.847886",uuuu,85633159,,b208deb54aabc975eb333959370ffdb9,,439283e6a0bf19530a68ace4a61669ea,54.147048,-2.886952,85633159,uuuu,GB,GB,1509143042,52.418788,-1.247349,0,United Kingdom,102191581,856/331/59/85633159.geojson,country,0,naturalearth,,,GB
"39.985976,41.044111,46.694803,43.575843",uuuu,85633163,,3b2a7ffcff8d96f2f7f22f1310981b39,,77690249a1dd8aaaca0f725524fd8e4c,42.168801,43.507526,85633163,uuuu,GE,GE,1509142730,41.870087,43.735725,0,Georgia,102191569,856/331/63/85633163.geojson,country,0,naturalearth,,,GE
"19.626475,34.815009,28.239757,41.750476",uuuu,85633171,,aeeb23fbd31cc9248011374df03feeee,,1b50d074951152b7ed93434ca264343f,39.051181,22.974819,85633171,uuuu,GR,GR,1509142732,39.783310,21.708535,0,Greece,102191581,856/331/71/85633171.geojson,country,0,naturalearth,,,GR
"13.501475,42.416327,19.407838,46.546979",uuuu,85633229,,61defe32f2b89245229485b0b0c88af9,,f3107862e2b4a1a0f38f4707f4b6fd5b,45.067726,16.398549,85633229,1991-05~/1991-06~,HR,HR,1509142710,45.805356,16.375139,0,Croatia,102191581,856/332/29/85633229.geojson,country,0,naturalearth,,1126113567,HR
"16.094035,45.741343,22.877601,48.569233",uuuu,85633237,,82b123289f3354f2a4f4501abe11b2bd,,75e7d85554d51b085859a4f56737ad83,47.163244,19.396759,85633237,uuuu,HU,HU,1509142738,47.086857,19.447899,0,Hungary,102191581,856/332/37/85633237.geojson,country,0,naturalearth,,,HU
"-10.478179,51.445705,-5.99352,55.386379",uuuu,85633241,,dcbe953f2ac631eb06fd26643234f7c2,,15e038d31213760e245b777592a2fa57,53.178221,-8.145045,85633241,uuuu,IE,IE,1509142774,53.078731,-7.798618,0,Ireland,102191581,856/332/41/85633241.geojson,country,0,naturalearth,,,IE
"-15.39458370199998,7.190909,-7.637853,12.6745792000001",uuuu,85632691,,fd1c77ffef1a0433db2b6bd8d37d16ee,,6740bfbf72f34b9b555c1b54e69ab877,10.439596,-10.932205,85632691,uuuu,GN,GN,1509142735,10.625075,-9.951975,0,Guinea,102191573,856/326/91/85632691.geojson,country,0,quattroshapes,,,GN
"-24.539906,63.396715,-13.502919,66.564154",uuuu,85633249,,acaaf9c749fb144561f88eebf17e0582,,7c2a0b7b8e1a9ec3d21ef5232bc078dd,64.998316,-18.596446,85633249,uuuu,IS,IS,1509142739,64.779262,-18.673522,0,Iceland,102191581,856/332/49/85633249.geojson,country,0,naturalearth,,,IS
"-17.013743,21.419971,-1.031999,35.926519",uuuu,85632693,,6a21e3460e0a7fce0b98d84382f320fd,,ce22c482532ff649ee02130006b5e155,29.841692,-8.396435,85632693,uuuu,MA,MA,1509142804,31.649504,-7.189711,0,Morocco,102191573,856/326/93/85632693.geojson,country,0,naturalearth,,85632209,MA
"6.602728,35.489244,18.517426,47.085215",uuuu,85633253,,60ff9473e8b8a9c7a5e0fbd4823a4cd5,,8bbfa6c2e2a0860ab920d4a7ce7d840e,42.786434,12.071907,85633253,uuuu,IT,IT,1509142775,44.732552,11.077303,0,Italy,102191581,856/332/53/85633253.geojson,country,0,naturalearth,,,IT
"20.01427899999979,41.85279899999986,21.78997249999978,43.26795349999986",uuuu,85633259,,60d642018d43fbb7a9e4dd486d39695a,,799e3a80c1d5f17e6d6a47a200b2cd53,42.581482,20.889203,85633259,2008-02~,XK,XK,1505169419,42.590239,20.875449,0,Kosovo,102191581,856/332/59/85633259.geojson,country,0,quattroshapes,,,XK
"9.475886,47.0524,9.615723,47.262801",uuuu,85633267,,6a98e321ca00d084d37cd421a7a16e2a,,d9a7920b105f1e63578fbcb2308f9886,47.138206,9.540900,85633267,uuuu,LI,LI,1509142796,47.111405,9.559439,0,Liechtenstein,102191581,856/332/67/85633267.geojson,country,0,naturalearth,,,LI
"20.924569,53.886841,26.80072,56.442602",uuuu,85633269,,733f5bbef2c0286abf077b7943f56c4b,,860f9ace1e622616bebcae3da5330607,55.327024,23.888249,85633269,uuuu,LT,LT,1509142796,55.103703,24.089932,0,Lithuania,102191581,856/332/69/85633269.geojson,country,0,naturalearth,,,LT
"5.7357589999998,49.44783849999985,6.52960049999979,50.18278149999983",uuuu,85633275,,f12b09540d922a51569c0a16acfd0327,,44a2eaf3f37651849f0e98484cad337b,49.776861,6.092603,85633275,uuuu,LU,LU,1509142796,49.759178,6.086636,0,Luxembourg,102191581,856/332/75/85633275.geojson,country,0,quattroshapes,,,LU
"20.968598,55.666991,28.217275,58.075138",uuuu,85633279,,ca52aad5a005c3ef2a61317e7183cc83,,0e22a5004fea4b9539dd4e12f6f07954,56.851819,24.908622,85633279,uuuu,LV,LV,1509142793,57.066890,25.458464,0,Latvia,102191581,856/332/79/85633279.geojson,country,0,naturalearth,,,LV
"7.36575,43.717969,7.437454,43.763506",uuuu,85633285,,fe54aea22e2650276267d4f70e5ca3ed,,48749ad7fd7a149614dc60e61a257370,43.739846,7.398974,85633285,uuuu,MC,MC,1509142803,43.739652,7.398291,0,Monaco,102191581,856/332/85/85633285.geojson,country,0,naturalearth,,,MC
"26.617889,45.461774,30.131576,48.486034",uuuu,85633287,,7be9eda505db1a05b9564431ca698b38,,094fda70b5cd25bf77489cb59435080d,47.195101,28.461397,85633287,uuuu,MD,MD,1509142992,47.435000,28.487904,0,Moldova,102191581,856/332/87/85633287.geojson,country,0,naturalearth,,,MD
"-118.368804,14.546283,-86.700592,32.712836",uuuu,85633293,,4806deb421a9994b2e45c18d9f08971e,,f38baabdac176aa7291d4a836f40eb4e,23.949171,-102.530308,85633293,uuuu,MX,MX,1509142802,23.920061,-102.289691,0,Mexico,102191575,856/332/93/85633293.geojson,country,0,naturalearth,,,MX
"3.3094399999998,50.75066749999984,7.23090249999979,53.56581499999984",uuuu,85633337,,bcffce7ec8091b1b9d1d3a58ad378164,,8427b6e8b4f4415fc99e14ae4b169543,52.317332,5.530858,85633337,uuuu,NL,NL,1509142813,52.554205,5.501896,0,Netherlands,102191581,856/333/37/85633337.geojson,country,0,quattroshapes,,,NL
"-9.116829,-54.462359,33.641026,80.769748",uuuu,85633341,,624b716b090f73bca75b3b8039ef1c36,,fd820922131cc481d37a729fc9393b19,68.796400,15.412450,85633341,uuuu,NO,NO,1513809018,61.356908,9.680372,0,Norway,102191581,856/333/41/85633341.geojson,country,0,naturalearth,,,NO
"-31.26821900000016,30.13698399999987,-6.18935200000018,42.15441949999984",uuuu,85633735,,c6380b02ad52847ad7fa756db51d4501,,a1660cfa2ab217dd1998aebcefec01d0,39.592701,-8.521417,85633735,uuuu,PT,PT,1509142989,39.225448,-8.266333,0,Portugal,102191581,856/337/35/85633735.geojson,country,0,quattroshapes,,,PT
"34.21800231933594,31.22396278381348,35.57235717773438,32.55205154418945",uuuu,85633739,,a65b2f28b8e86e1412c26b014cc90219,,2516ce08a90d59c0d7201ef99c0c1bed,31.920145,35.194468,85633739,uuuu,PS,PS,1509143026,32.052183,35.252175,0,Palestine,102191569,856/337/39/85633739.geojson,country,0,quattroshapes,,,PS
"20.26195149999978,43.61902599999985,29.71524749999978,48.26515199999986",uuuu,85633745,,53be25e6fb855ea8b45fbbe43c1ece41,,bb2adbae95e995c6c5e0f8dd0acd5e10,45.839272,24.984658,85633745,uuuu,RO,RO,1509142992,45.727469,24.984652,0,Romania,102191581,856/337/45/85633745.geojson,country,0,quattroshapes,,,RO
"18.84768649999978,42.23217449999984,23.00583549999979,46.19004849999985",uuuu,85633755,,2812df09f905dcf78478b5ae76871a6f,,2acdf69d3c6c507b46f7e700cad4034f,44.230010,20.793595,85633755,2006-05~/2006-06~,RS,RS,1509143019,44.251791,20.589197,0,Serbia,102191581,856/337/55/85633755.geojson,country,0,quattroshapes,,1108955783,RS
"12.40365199999979,43.89429449999986,12.51593599999978,43.99199299999984",uuuu,85633763,,ce2144bab07a2799c8422941286fd516,,0e3d3e115910843912d45425aa2c2af3,43.938316,12.463208,85633763,uuuu,SM,SM,1509143019,43.934066,12.462139,0,San Marino,102191581,856/337/63/85633763.geojson,country,0,quattroshapes,,,SM
"16.83269499999977,47.73130049999983,22.56911649999978,49.60999349999983",uuuu,85633769,,3a54178aaa99e3d6141f9ce10d189aa9,,21d1d3af37fda820fbeb8e1fae9c8be4,48.707068,19.483743,85633769,uuuu,SK,SK,1509143021,48.752408,19.201811,0,Slovakia,102191581,856/337/69/85633769.geojson,country,0,quattroshapes,,,SK
"13.37585399999978,45.42108899999985,16.61056149999979,46.87657149999984",uuuu,85633779,,3602ae951deb6f97c23ed2f5cb30cd51,,5794d7a401837908eb746fd4c598c4e2,46.119389,14.821852,85633779,1991-06~/1992-01~,SI,SI,1509143021,46.068735,14.932759,0,Slovenia,102191581,856/337/79/85633779.geojson,country,0,quattroshapes,,1126113567,SI
"11.108165,55.342678,24.163414,69.036356",uuuu,85633789,,09117a419bea218c7d760a6ac5d035bd,,ea323dd1dc4b6b433a67fff666409372,62.777100,16.754466,85633789,uuuu,SE,SE,1509143029,65.859144,19.017205,0,Sweden,102191581,856/337/89/85633789.geojson,country,0,naturalearth,,,SE
"-109.44416809082031,-55.97929763793945,-66.41377258300781,-17.49847412109375",uuuu,85633057,,5e5b4bd8d16a9eaadd79b2ca1254a369,,912a681a80485e21fb6c9106fc77a85e,-37.979008,-71.389550,85633057,uuuu,CL,CL,1509142677,-38.165295,-72.288079,0,Chile,102191577,856/330/57/85633057.geojson,country,0,quattroshapes,,,CL
"73.49941400000091,20.22622299200003,134.7728100000005,53.56097400000095",uuuu,85632695,,7c5dafa52b4534ae3a860bca101c99e8,,b477647c544b41cbe3a9a9619a7b1143,36.624900,103.909865,85632695,uuuu,CN,CN,1509142694,32.523743,106.431983,0,China,102191569,856/326/95/85632695.geojson,country,0,quattroshapes,,,CN
"16.47055,-46.965814,37.978281,-22.126452",uuuu,85633813,,25f58cedfce6f389b026343a97f507d1,,25e0d1cf45d167b88e1ac9f2bdf7f834,-29.001052,25.087733,85633813,uuuu,ZA,ZA,1509143023,-29.708985,23.666291,0,South Africa,102191573,856/338/13/85633813.geojson,country,0,quattroshapes,,,ZA
"-179.231086,18.86546,179.859681,71.441059",uuuu,85633793,,21f8475dfca478c39a4b2f7981503c33,,8320fa0989b8f99fb033010392cb5ce3,45.964509,-113.268600,85633793,uuuu,US,US,1509143044,39.715956,-96.999668,0,United States,102191575,856/337/93/85633793.geojson,country,0,quattroshapes,,,US
"112.921113952,-43.740509603,159.109219008,-9.142175977",uuuu,85632793,,742ac1306e2ba0dd18687bed443d8c7e,,b97495e210f239a24b8a287efddbbe64,-25.728398,134.490287,85632793,uuuu,AU,AU,1509142586,-23.992438,134.050443,0,Australia,102191583,856/327/93/85632793.geojson,country,0,quattroshapes,,,AU
"166.42614813179435,-47.28999249652178,178.5772437805808,-33.95849813870798",uuuu,85633345,,8cc62309651b6b024028d5e959d48629,,6feadc618e4bc6642a80302a1a659eb0,-41.735409,172.590761,85633345,uuuu,NZ,NZ,1512073717,-45.175323,169.232531,0,New Zealand,102191583,856/333/45/85633345.geojson,country,0,quattroshapes,,,NZ
"-73.969617,40.74811,-73.964853,40.752629",uuuu,102312305,,3800a0612aa81726cd00a7799ee4a708,,5333563c90846c0af6ee4daf4cd978d2,40.750368,-73.967287,102312305,uuuu,UN,UN,1500060334,40.750362,-73.967323,0,United Nations,102191575,102/312/305/102312305.geojson,country,0,mapzen,,,UN
"113.5284917212756,22.10944366500013,113.59126869699799,22.21715303857508",uuuu,85632161,,7451a55182f384951720a0bdc59beac3,,f771682454c995c209503eff6ed71bb8,22.158225,113.557709,85632161,uuuu,MO,MO,1509142704,22.139833,113.563619,0,Macao S.A.R,102191569,856/321/61/85632161.geojson,country,0,quattroshapes,,,MO
"46.55304001000002,28.52444600000013,48.77794265700004,30.10369906199998",uuuu,85632401,,6809d091392d79b0ba89e03e34ca555b,,36588ecb4be8da547b966da5e0186271,29.354403,47.613542,85632401,uuuu,KW,KW,1509142790,29.422226,47.330015,0,Kuwait,102191569,856/324/01/85632401.geojson,country,0,quattroshapes,,,KW
"-61.48872375499997,15.20455551100002,-61.24952697799995,15.63791656500007",uuuu,85632503,,8557d42336a2b8e58acb3d19ad35dd83,,5b01c6806d3a27d5e90911c13d81a2d2,15.432059,-61.359059,85632503,uuuu,DM,DM,1509142718,15.460196,-61.356841,0,Dominica,102191575,856/325/03/85632503.geojson,country,0,quattroshapes,,,DM
"2.54601099999979,49.49723799999983,6.40639099999979,51.50484449999985",uuuu,85632997,,d4bf78153292b42094a8733d87a3615c,,de2c21e46dad1faaf9b148fa306439de,50.640991,4.660920,85632997,uuuu,BE,BE,1509142654,50.780688,4.792712,0,Belgium,102191581,856/329/97/85632997.geojson,country,0,quattroshapes,,,BE
"12.076141,48.557916,18.837434,51.040012",uuuu,85633105,,9cf37d3e86ef68248c08116a9f96551c,,b6ebb1d3510195a85aeab4302db7c594,49.732448,15.314103,85633105,uuuu,CZ,CZ,1509142714,49.882330,15.377705,0,Czech Republic,102191581,856/331/05/85633105.geojson,country,0,naturalearth,,,CZ
"22.35837849999979,41.23837399999985,28.60569299999977,44.21569249999985",uuuu,85633001,,2c3518e3f1d0765cea3e6fe9253437e7,,a783b9397d459792baa4c1511c0cf7d7,42.758554,25.236214,85633001,uuuu,BG,BG,1509142666,42.501868,25.176846,0,Bulgaria,102191581,856/330/01/85633001.geojson,country,0,quattroshapes,,,BG
"14.1836059999998,35.80645899999984,14.57615499999977,36.08243849999985",uuuu,85633331,,1e25e3a5065b059fb56834f7bf130c7f,,6f0c796cc68173072005ca366672273b,35.922645,14.399911,85633331,uuuu,MT,MT,1509142801,35.888972,14.431432,0,Malta,102191581,856/333/31/85633331.geojson,country,0,quattroshapes,,,MT
"22.13284,44.380755,40.159543,52.368949",uuuu,85633805,,0cf1e1fb80c0886d042625cf6c94cea8,,b9d1507fab34a246bd9305c370b679f4,48.997250,31.385855,85633805,uuuu,UA,UA,1509143041,49.219469,33.023452,0,Ukraine,102191581,856/338/05/85633805.geojson,country,0,naturalearth,,,UA
"14.12340749999979,49.00202549999983,24.14579599999976,54.83581199999983",uuuu,85633723,,4574451abcc394c896003031b1f8206f,,2f55f12187a36e7068e52f3ac25ee77f,52.128666,19.393453,85633723,uuuu,PL,PL,1509142989,51.899304,20.388926,0,Poland,102191581,856/337/23/85633723.geojson,country,0,quattroshapes,,,PL
"-73.05724,59.792629,-11.37682,83.634101",uuuu,85633217,,02940231b0d9a6489be59055b27c1d90,,0ed25d0a07837c1fcc9962cc4cac6e06,74.735991,-41.345739,85633217,uuuu,GL,GL,1509142733,74.319379,-39.335081,0,Greenland,102191575,856/332/17/85633217.geojson,country,0,naturalearth,,,GL
"95.00708007800006,-10.99251469635779,141.02215100000012,6.08125019100004",uuuu,85632203,,0c513f0fad46e6e9221446b7e89d9456,,8088a92972bd6ce0e1eed6782d0bfc85,-2.231787,117.302081,85632203,uuuu,ID,ID,1509142747,-1.003189,101.972332,0,Indonesia,102191569,856/322/03/85632203.geojson,country,0,quattroshapes,,,ID
"13.37585399999978,40.85334400000011,23.034093,46.87657149999984",1991-06~,1126113567,,e4c5bbad637003a2f5a1c51ea486081b,,b1d9aa15487ef02e179e796e8fae7dec,44.158904,18.732796,1126113567,1945-11-29,XX,XX,1498685493,44.098986,18.839966,0,Socialist Federal Republic of Yugoslavia,102191581,112/611/356/7/1126113567.geojson,country,0,mz,"1108955787,85633779,85633229",1108955789,XX
